matchID,seriesID,seriesName,matchDescription,matchFormat,startDate,endDate,state,status,teamID,teamName,team1Name,team1imageID,team2teamId,team2Name,team2Name,team2imageId,venueInfoid,venueInfoground,city,timezone,latitude,longitude,currBatTeamId,seriesStartDt,seriesEndDt,isTimeAnnounced,stateTitle,inngs1inningsId,inngs1runs,inngs1wickets,inngs1overs,inngs2inningsId,inngs2runs,inngs2wickets,inngs2overs,inngs1inningsId,inngs1runs,inngs1wickets,inngs1overs,inningsId,inngs2runs,inngs2wickets,inngs2overs,inngs2isDeclared,inngs1isDeclared,inngs2isFollowOn,inngs1isDeclared
78635.0,6927.0,"England tour of India, 2024",2nd Test,TEST,1706846400000,1707217200000,Complete,India won by 106 runs,2.0,India,IND,172115.0,9.0,England,ENG,172123.0,154.0,Dr. Y.S. Rajasekhara Reddy ACA-VDCA Cricket Stadium,Visakhapatnam,+05:30,17.797459,83.352254,2.0,1706140800000,1710288000000,True,IND Won,1.0,396.0,10.0,111.6,3.0,255.0,10.0,78.3,2.0,253.0,10.0,55.5,4.0,292.0,10.0,69.2,,,,
78082.0,6892.0,"South Africa tour of New Zealand, 2024",2nd Test,TEST,1707775200000,1708146000000,Complete,New Zealand won by 7 wkts,11.0,South Africa,RSA,172126.0,13.0,New Zealand,NZ,172128.0,100.0,Seddon Park,Hamilton,+13:00,-37.786654,175.266647,13.0,1706486400000,1708300800000,True,NZ Won,1.0,242.0,10.0,97.2,3.0,235.0,10.0,69.5,2.0,211.0,10.0,77.3,4.0,269.0,3.0,94.2,,,,
78075.0,6892.0,"South Africa tour of New Zealand, 2024",1st Test,TEST,1706997600000,1707368400000,Complete,New Zealand won by 281 runs,13.0,New Zealand,NZ,172128.0,11.0,South Africa,RSA,172126.0,393.0,Bay Oval,Mount Maunganui,+13:00,-37.670300,176.212006,13.0,1706486400000,1708300800000,True,NZ Won,1.0,511.0,10.0,143.6,3.0,179.0,4.0,42.6,2.0,162.0,10.0,72.5,4.0,247.0,10.0,79.6,True,,,
87901.0,7481.0,"Afghanistan tour of Sri Lanka, 2024",1st T20I,T20,1708176600000,1708189200000,Complete,Sri Lanka won by 4 runs,5.0,Sri Lanka,SL,172119.0,96.0,Afghanistan,AFG,172188.0,13.0,Rangiri Dambulla International Stadium,Dambulla,+05:30,7.859556,80.634026,5.0,1706832000000,1708646400000,True,SL Won,1.0,160.0,10.0,18.6,,,,,2.0,156.0,9.0,19.6,,,,,,,,
87897.0,7481.0,"Afghanistan tour of Sri Lanka, 2024",3rd ODI,ODI,1707901200000,1707930000000,Complete,Sri Lanka won by 7 wkts,96.0,Afghanistan,AFG,172188.0,5.0,Sri Lanka,SL,172119.0,254.0,Pallekele International Cricket Stadium,Pallekele,+05:30,7.280691,80.722493,5.0,1706832000000,1708646400000,True,SL Won,1.0,266.0,10.0,48.2,,,,,2.0,267.0,3.0,35.2,,,,,,,,
87894.0,7481.0,"Afghanistan tour of Sri Lanka, 2024",2nd ODI,ODI,1707642000000,1707670800000,Complete,Sri Lanka won by 155 runs,5.0,Sri Lanka,SL,172119.0,96.0,Afghanistan,AFG,172188.0,254.0,Pallekele International Cricket Stadium,Pallekele,+05:30,7.280691,80.722493,5.0,1706832000000,1708646400000,True,SL Won,1.0,308.0,6.0,49.6,,,,,2.0,153.0,10.0,33.5,,,,,,,,
87887.0,7481.0,"Afghanistan tour of Sri Lanka, 2024",1st ODI,ODI,1707469200000,1707498000000,Complete,Sri Lanka won by 42 runs,5.0,Sri Lanka,SL,172119.0,96.0,Afghanistan,AFG,172188.0,254.0,Pallekele International Cricket Stadium,Pallekele,+05:30,7.280691,80.722493,5.0,1706832000000,1708646400000,True,SL Won,1.0,381.0,3.0,49.6,,,,,2.0,339.0,6.0,49.6,,,,,,,,
87880.0,7481.0,"Afghanistan tour of Sri Lanka, 2024",Only Test,TEST,1706848200000,1707219000000,Complete,Sri Lanka won by 10 wkts,96.0,Afghanistan,AFG,172188.0,5.0,Sri Lanka,SL,172119.0,14.0,Sinhalese Sports Club,Colombo,+05:30,6.905929,79.869403,5.0,1706832000000,1708646400000,True,SL Won,1.0,198.0,10.0,62.4,3.0,296.0,10.0,112.3,2.0,439.0,10.0,109.2,4.0,56.0,,7.2,,,,
89040.0,7553.0,"Canada tour of Nepal, 2024",3rd ODI,ODI,1707708600000,1707737400000,Complete,Nepal won by 9 wkts,26.0,Canada,CAN,172140.0,72.0,Nepal,NEP,172169.0,458.0,Tribhuvan University International Cricket Ground,Kirtipur,+05:45,27.6768145,85.287199,72.0,1707350400000,1707868800000,True,NEP Won,1.0,232.0,8.0,49.6,,,,,2.0,234.0,1.0,44.3,,,,,,,,
89033.0,7553.0,"Canada tour of Nepal, 2024",2nd ODI,ODI,1707535800000,1707564600000,Complete,Nepal won by 4 wkts,26.0,Canada,CAN,172140.0,72.0,Nepal,NEP,172169.0,458.0,Tribhuvan University International Cricket Ground,Kirtipur,+05:45,27.6768145,85.287199,72.0,1707350400000,1707868800000,True,NEP Won,1.0,285.0,9.0,49.6,,,,,2.0,287.0,6.0,45.1,,,,,,,,
89026.0,7553.0,"Canada tour of Nepal, 2024",1st ODI,ODI,1707363000000,1707391800000,Complete,Nepal won by 7 runs,72.0,Nepal,NEP,172169.0,26.0,Canada,CAN,172140.0,458.0,Tribhuvan University International Cricket Ground,Kirtipur,+05:45,27.6768145,85.287199,72.0,1707350400000,1707868800000,True,NEP Won,1.0,224.0,10.0,49.6,,,,,2.0,217.0,10.0,47.5,,,,,,,,
70375.0,6297.0,"West Indies tour of Australia, 2024",3rd T20I,T20,1707811200000,1707823800000,Complete,West Indies won by 37 runs,10.0,West Indies,WI,172124.0,4.0,Australia,AUS,172117.0,512.0,Perth Stadium,Perth,+08:00,-31.9496122,115.7858493,10.0,1704844800000,1707955200000,True,WI Won,1.0,220.0,6.0,19.6,,,,,2.0,183.0,5.0,19.6,,,,,,,,
70368.0,6297.0,"West Indies tour of Australia, 2024",2nd T20I,T20,1707638400000,1707651000000,Complete,Australia won by 34 runs,4.0,Australia,AUS,172117.0,10.0,West Indies,WI,172124.0,40.0,Adelaide Oval,Adelaide,+10:30,-34.915516,138.596115,4.0,1704844800000,1707955200000,True,AUS Won,1.0,241.0,4.0,19.6,,,,,2.0,207.0,9.0,19.6,,,,,,,,
70361.0,6297.0,"West Indies tour of Australia, 2024",1st T20I,T20,1707465600000,1707478200000,Complete,Australia won by 11 runs,4.0,Australia,AUS,172117.0,10.0,West Indies,WI,172124.0,39.0,Bellerive Oval,Hobart,+11:00,-42.877296,147.374013,4.0,1704844800000,1707955200000,True,AUS Won,1.0,213.0,7.0,19.6,,,,,2.0,202.0,8.0,19.6,,,,,,,,
70354.0,6297.0,"West Indies tour of Australia, 2024",3rd ODI,ODI,1707190200000,1707219000000,Complete,Australia won by 8 wkts,10.0,West Indies,WI,172124.0,4.0,Australia,AUS,172117.0,123.0,Manuka Oval,Canberra,+11:00,-35.318630,149.136703,4.0,1704844800000,1707955200000,True,AUS Won,1.0,86.0,10.0,24.1,,,,,2.0,87.0,2.0,6.5,,,,,,,,
70347.0,6297.0,"West Indies tour of Australia, 2024",2nd ODI,ODI,1707017400000,1707046200000,Complete,Australia won by 83 runs,4.0,Australia,AUS,172117.0,10.0,West Indies,WI,172124.0,34.0,Sydney Cricket Ground,Sydney,+11:00,-33.868820,151.209296,4.0,1704844800000,1707955200000,True,AUS Won,1.0,258.0,9.0,49.6,,,,,2.0,175.0,10.0,43.3,,,,,,,,
88417.0,7511.0,ACC Mens T20I Challenger Cup 2024,Final,T20,1707634200000,1707646800000,Complete,Saudi Arabia won by 5 wkts,1447.0,Cambodia,CBD,254834.0,571.0,Saudi Arabia,SAU,172623.0,474.0,Terdthai Cricket Ground,Bangkok,+07:00,13.756331,100.501765,571.0,1706313600000,1707782400000,True,SAU Won,1.0,147.0,5.0,19.6,,,,,2.0,151.0,5.0,17.3,,,,,,,,
88410.0,7511.0,ACC Mens T20I Challenger Cup 2024,3rd Place Play-off,T20,1707618600000,1707631200000,Complete,Singapore won by 8 wkts,547.0,Japan,JPN,248418.0,190.0,Singapore,SIN,172250.0,474.0,Terdthai Cricket Ground,Bangkok,+07:00,13.756331,100.501765,190.0,1706313600000,1707782400000,True,SIN Won,1.0,215.0,3.0,19.6,,,,,2.0,216.0,2.0,19.2,,,,,,,,
88403.0,7511.0,ACC Mens T20I Challenger Cup 2024,Semi Final 2,T20,1707461400000,1707474000000,Complete,Cambodia won by 6 wkts,190.0,Singapore,SIN,172250.0,1447.0,Cambodia,CBD,254834.0,474.0,Terdthai Cricket Ground,Bangkok,+07:00,13.756331,100.501765,1447.0,1706313600000,1707782400000,True,CBD Won,1.0,109.0,10.0,19.6,,,,,2.0,113.0,4.0,14.5,,,,,,,,
88396.0,7511.0,ACC Mens T20I Challenger Cup 2024,Semi Final 1,T20,1707445800000,1707458400000,Complete,Saudi Arabia won by 10 wkts,547.0,Japan,JPN,248418.0,571.0,Saudi Arabia,SAU,172623.0,474.0,Terdthai Cricket Ground,Bangkok,+07:00,13.756331,100.501765,571.0,1706313600000,1707782400000,True,SAU Won,1.0,97.0,8.0,19.6,,,,,2.0,98.0,,8.6,,,,,,,,
88389.0,7511.0,ACC Mens T20I Challenger Cup 2024,7th Place Play-off,T20,1707288600000,1707301200000,Complete,Maldives won by 32 runs,563.0,Maldives,MDV,172615.0,555.0,Bhutan,BTN,172607.0,474.0,Terdthai Cricket Ground,Bangkok,+07:00,13.756331,100.501765,563.0,1706313600000,1707782400000,True,MDV Won,1.0,137.0,8.0,19.6,,,,,2.0,105.0,10.0,18.2,,,,,,,,
88382.0,7511.0,ACC Mens T20I Challenger Cup 2024,5th Place Play-off,T20,1707273000000,1707285600000,Complete,Thailand won by 7 wkts,566.0,Indonesia,IDN,172618.0,384.0,Thailand,THAI,172437.0,474.0,Terdthai Cricket Ground,Bangkok,+07:00,13.756331,100.501765,384.0,1706313600000,1707782400000,True,THAI Won,1.0,131.0,8.0,19.6,,,,,2.0,132.0,3.0,17.2,,,,,,,,
88375.0,7511.0,ACC Mens T20I Challenger Cup 2024,"12th Match, Group B",T20,1707201000000,1707213600000,Complete,Thailand won by 8 wkts,563.0,Maldives,MDV,172615.0,384.0,Thailand,THAI,172437.0,474.0,Terdthai Cricket Ground,Bangkok,+07:00,13.756331,100.501765,384.0,1706313600000,1707782400000,True,THAI Won,1.0,127.0,7.0,19.6,,,,,2.0,128.0,2.0,9.4,,,,,,,,
88368.0,7511.0,ACC Mens T20I Challenger Cup 2024,"11th Match, Group B",T20,1707186600000,1707199200000,Complete,Singapore won by 34 runs,190.0,Singapore,SIN,172250.0,547.0,Japan,JPN,248418.0,474.0,Terdthai Cricket Ground,Bangkok,+07:00,13.756331,100.501765,190.0,1706313600000,1707782400000,True,SIN Won,1.0,176.0,5.0,19.6,,,,,2.0,142.0,8.0,19.6,,,,,,,,
88361.0,7511.0,ACC Mens T20I Challenger Cup 2024,"10th Match, Group A",T20,1707114600000,1707127200000,Complete,Cambodia won by 10 runs,1447.0,Cambodia,CBD,254834.0,555.0,Bhutan,BTN,172607.0,474.0,Terdthai Cricket Ground,Bangkok,+07:00,13.756331,100.501765,1447.0,1706313600000,1707782400000,True,CBD Won,1.0,174.0,6.0,19.6,,,,,2.0,164.0,6.0,19.6,,,,,,,,
88354.0,7511.0,ACC Mens T20I Challenger Cup 2024,"9th Match, Group A",T20,1707100200000,1707112800000,Complete,Saudi Arabia won by 82 runs,571.0,Saudi Arabia,SAU,172623.0,566.0,Indonesia,IDN,172618.0,474.0,Terdthai Cricket Ground,Bangkok,+07:00,13.756331,100.501765,571.0,1706313600000,1707782400000,True,SAU Won,1.0,185.0,4.0,19.6,,,,,2.0,103.0,9.0,19.6,,,,,,,,
88347.0,7511.0,ACC Mens T20I Challenger Cup 2024,"8th Match, Group B",T20,1707028200000,1707040800000,Complete,Japan won by 42 runs,547.0,Japan,JPN,248418.0,563.0,Maldives,MDV,172615.0,474.0,Terdthai Cricket Ground,Bangkok,+07:00,13.756331,100.501765,547.0,1706313600000,1707782400000,True,JPN Won,1.0,150.0,8.0,19.6,,,,,2.0,108.0,10.0,18.4,,,,,,,,
88340.0,7511.0,ACC Mens T20I Challenger Cup 2024,"7th Match, Group B",T20,1707013800000,1707026400000,Complete,Thailand won by 7 wkts,190.0,Singapore,SIN,172250.0,384.0,Thailand,THAI,172437.0,474.0,Terdthai Cricket Ground,Bangkok,+07:00,13.756331,100.501765,384.0,1706313600000,1707782400000,True,THAI Won,1.0,115.0,9.0,19.6,,,,,2.0,116.0,3.0,18.1,,,,,,,,
89070.0,7558.0,East Asia Cup 2024,Final,T20,1708149600000,1708162200000,Complete,Hong Kong won by 34 runs,8.0,Hong Kong,HK,172122.0,547.0,Japan,JPN,248418.0,454.0,Mission Road Ground,Mong Kok,+08:00,22.323286,114.1828583,8.0,1707868800000,1708300800000,True,HK Won,1.0,219.0,7.0,19.6,,,,,2.0,185.0,8.0,19.6,,,,,,,,
89066.0,7558.0,East Asia Cup 2024,6th Match,T20,1708063200000,1708075800000,Complete,Japan won by 44 runs,547.0,Japan,JPN,248418.0,524.0,China,CHN,172574.0,454.0,Mission Road Ground,Mong Kok,+08:00,22.323286,114.1828583,547.0,1707868800000,1708300800000,True,JPN Won,1.0,143.0,10.0,19.3,,,,,2.0,99.0,8.0,19.6,,,,,,,,
89063.0,7558.0,East Asia Cup 2024,5th Match,T20,1708047000000,1708059600000,Complete,Hong Kong won by 10 wkts,524.0,China,CHN,172574.0,8.0,Hong Kong,HK,172122.0,454.0,Mission Road Ground,Mong Kok,+08:00,22.323286,114.1828583,8.0,1707868800000,1708300800000,True,HK Won,1.0,41.0,10.0,12.4,,,,,2.0,42.0,,4.6,,,,,,,,
89056.0,7558.0,East Asia Cup 2024,4th Match,T20,1707976800000,1707989400000,Complete,Hong Kong won by 27 runs,8.0,Hong Kong,HK,172122.0,547.0,Japan,JPN,248418.0,454.0,Mission Road Ground,Mong Kok,+08:00,22.323286,114.1828583,8.0,1707868800000,1708300800000,True,HK Won,1.0,155.0,10.0,19.4,,,,,2.0,128.0,10.0,18.5,,,,,,,,
89052.0,7558.0,East Asia Cup 2024,3rd Match,T20,1707960600000,1707973200000,Complete,Japan won by 180 runs,547.0,Japan,JPN,248418.0,524.0,China,CHN,172574.0,454.0,Mission Road Ground,Mong Kok,+08:00,22.323286,114.1828583,547.0,1707868800000,1708300800000,True,JPN Won,1.0,258.0,,19.6,,,,,2.0,78.0,10.0,16.5,,,,,,,,
89045.0,7558.0,East Asia Cup 2024,2nd Match,T20,1707890400000,1707903000000,Complete,Hong Kong won by 7 wkts,547.0,Japan,JPN,248418.0,8.0,Hong Kong,HK,172122.0,454.0,Mission Road Ground,Mong Kok,+08:00,22.323286,114.1828583,8.0,1707868800000,1708300800000,True,HK Won,1.0,179.0,5.0,19.6,,,,,2.0,184.0,3.0,16.1,,,,,,,,
89042.0,7558.0,East Asia Cup 2024,1st Match,T20,1707872400000,1707885000000,Complete,Hong Kong won by 123 runs,8.0,Hong Kong,HK,172122.0,524.0,China,CHN,172574.0,454.0,Mission Road Ground,Mong Kok,+08:00,22.323286,114.1828583,8.0,1707868800000,1708300800000,True,HK Won,1.0,171.0,5.0,19.6,,,,,2.0,48.0,8.0,19.6,,,,,,,,
89339.0,7579.0,Quadrangular Twenty20 Series in Thailand 2024,3rd place play-off,T20,1708065000000,1708077600000,Complete,Bhutan won by 4 wkts,563.0,Maldives,MDV,172615.0,555.0,Bhutan,BTN,172607.0,474.0,Terdthai Cricket Ground,Bangkok,+07:00,13.756331,100.501765,555.0,1707696000000,1708214400000,True,BTN Won,1.0,138.0,6.0,19.6,,,,,2.0,141.0,6.0,19.2,,,,,,,,
89336.0,7579.0,Quadrangular Twenty20 Series in Thailand 2024,Final,T20,1708050600000,1708063200000,Complete,Saudi Arabia won by 8 wkts,384.0,Thailand,THAI,172437.0,571.0,Saudi Arabia,SAU,172623.0,474.0,Terdthai Cricket Ground,Bangkok,+07:00,13.756331,100.501765,571.0,1707696000000,1708214400000,True,SAU Won,1.0,104.0,9.0,19.6,,,,,2.0,108.0,2.0,11.2,,,,,,,,
89329.0,7579.0,Quadrangular Twenty20 Series in Thailand 2024,6th Match,T20,1707978600000,1707991200000,Complete,Saudi Arabia won by 166 runs,571.0,Saudi Arabia,SAU,172623.0,555.0,Bhutan,BTN,172607.0,474.0,Terdthai Cricket Ground,Bangkok,+07:00,13.756331,100.501765,571.0,1707696000000,1708214400000,True,SAU Won,1.0,221.0,3.0,19.6,,,,,2.0,55.0,10.0,14.2,,,,,,,,
89322.0,7579.0,Quadrangular Twenty20 Series in Thailand 2024,5th Match,T20,1707964200000,1707976800000,Complete,Thailand won by 8 wkts,563.0,Maldives,MDV,172615.0,384.0,Thailand,THAI,172437.0,474.0,Terdthai Cricket Ground,Bangkok,+07:00,13.756331,100.501765,384.0,1707696000000,1708214400000,True,THAI Won,1.0,105.0,10.0,18.3,,,,,2.0,109.0,2.0,12.6,,,,,,,,
89315.0,7579.0,Quadrangular Twenty20 Series in Thailand 2024,4th Match,T20,1707805800000,1707818400000,Complete,Maldives won by 9 wkts,555.0,Bhutan,BTN,172607.0,563.0,Maldives,MDV,172615.0,474.0,Terdthai Cricket Ground,Bangkok,+07:00,13.756331,100.501765,563.0,1707696000000,1708214400000,True,MDV Won,1.0,115.0,6.0,19.6,,,,,2.0,119.0,1.0,14.3,,,,,,,,
89308.0,7579.0,Quadrangular Twenty20 Series in Thailand 2024,3rd Match,T20,1707791400000,1707804000000,Complete,Saudi Arabia won by 5 wkts,384.0,Thailand,THAI,172437.0,571.0,Saudi Arabia,SAU,172623.0,474.0,Terdthai Cricket Ground,Bangkok,+07:00,13.756331,100.501765,571.0,1707696000000,1708214400000,True,SAU Won,1.0,112.0,7.0,19.6,,,,,2.0,115.0,5.0,16.1,,,,,,,,
89304.0,7579.0,Quadrangular Twenty20 Series in Thailand 2024,2nd Match,T20,1707719400000,1707732000000,Complete,Saudi Arabia won by 98 runs,571.0,Saudi Arabia,SAU,172623.0,563.0,Maldives,MDV,172615.0,474.0,Terdthai Cricket Ground,Bangkok,+07:00,13.756331,100.501765,571.0,1707696000000,1708214400000,True,SAU Won,1.0,186.0,6.0,19.6,,,,,2.0,88.0,8.0,19.6,,,,,,,,
89297.0,7579.0,Quadrangular Twenty20 Series in Thailand 2024,1st Match,T20,1707705000000,1707717600000,Complete,Thailand won by 10 wkts,555.0,Bhutan,BTN,172607.0,384.0,Thailand,THAI,172437.0,474.0,Terdthai Cricket Ground,Bangkok,+07:00,13.756331,100.501765,384.0,1707696000000,1708214400000,True,THAI Won,1.0,70.0,10.0,17.6,,,,,2.0,72.0,,6.5,,,,,,,,
89248.0,7572.0,ICC Cricket World Cup League Two 2023-27,2nd Match,ODI,1708141500000,1708170300000,Complete,Nepal won by 9 wkts,24.0,Netherlands,NED,172138.0,72.0,Nepal,NEP,172169.0,458.0,Tribhuvan University International Cricket Ground,Kirtipur,+05:45,27.6768145,85.287199,72.0,1707955200000,1806537600000,True,NEP Won,1.0,137.0,10.0,38.6,,,,,2.0,141.0,1.0,15.2,,,,,,,,
89241.0,7572.0,ICC Cricket World Cup League Two 2023-27,1st Match,ODI,1707967800000,1707996600000,Complete,Namibia won by 4 wkts,72.0,Nepal,NEP,172169.0,161.0,Namibia,NAM,172229.0,458.0,Tribhuvan University International Cricket Ground,Kirtipur,+05:45,27.6768145,85.287199,161.0,1707955200000,1806537600000,True,NAM Won,1.0,132.0,10.0,41.1,,,,,2.0,134.0,6.0,33.1,,,,,,,,
87957.0,7492.0,"Pakistan Super League, 2024",1st Match,T20,1708182000000,1708194600000,Complete,Islamabad United won by 8 wkts,333.0,Lahore Qalandars,LHQ,172381.0,330.0,Islamabad United,ISU,172378.0,26.0,Gaddafi Stadium,Lahore,+05:00,31.513467,74.333375,330.0,1708128000000,1710892800000,True,ISU Won,1.0,195.0,5.0,19.6,,,,,2.0,200.0,2.0,18.2,,,,,,,,
82917.0,7257.0,"International League T20, 2024",Final,T20,1708180200000,1708192800000,Complete,MI Emirates won by 45 runs,1307.0,MI Emirates,MIE,249196.0,1298.0,Dubai Capitals,DCP,249194.0,153.0,Dubai International Cricket Stadium,Dubai,+04:00,25.046842,55.218969,1307.0,1705622400000,1708300800000,True,MIE Won,1.0,208.0,3.0,19.6,,,,,2.0,163.0,7.0,19.6,,,,,,,,
82913.0,7257.0,"International League T20, 2024",Qualifier 2,T20,1708007400000,1708020000000,Complete,Dubai Capitals won by 9 wkts,1319.0,Gulf Giants,GG,249198.0,1298.0,Dubai Capitals,DCP,249194.0,140.0,Sharjah Cricket Stadium,Sharjah,+04:00,25.33095,55.420902,1298.0,1705622400000,1708300800000,True,DCP Won,1.0,138.0,6.0,19.6,,,,,2.0,139.0,1.0,15.5,,,,,,,,
82908.0,7257.0,"International League T20, 2024",Qualifier 1,T20,1707921000000,1707933600000,Complete,MI Emirates won by 45 runs,1307.0,MI Emirates,MIE,249196.0,1319.0,Gulf Giants,GG,249198.0,153.0,Dubai International Cricket Stadium,Dubai,+04:00,25.046842,55.218969,1307.0,1705622400000,1708300800000,True,MIE Won,1.0,163.0,7.0,19.6,,,,,2.0,118.0,10.0,18.2,,,,,,,,
82906.0,7257.0,"International League T20, 2024",Eliminator,T20,1707834600000,1707847200000,Complete,Dubai Capitals won by 85 runs,1298.0,Dubai Capitals,DCP,249194.0,1300.0,Abu Dhabi Knight Riders,ADKR,249195.0,94.0,Sheikh Zayed Stadium,Abu Dhabi,+04:00,24.416138,54.453566,1298.0,1705622400000,1708300800000,True,DCP Won,1.0,188.0,5.0,19.6,,,,,2.0,103.0,10.0,16.5,,,,,,,,
82903.0,7257.0,"International League T20, 2024",30th Match,T20,1707661800000,1707674400000,Complete,Desert Vipers won by 6 wkts - Match reduced to 18 overs per side due to rain,1312.0,Sharjah Warriors,SW,249197.0,1326.0,Desert Vipers,DV,249199.0,140.0,Sharjah Cricket Stadium,Sharjah,+04:00,25.33095,55.420902,1326.0,1705622400000,1708300800000,True,DV Won,1.0,121.0,9.0,17.6,,,,,2.0,123.0,4.0,12.5,,,,,,,,
82896.0,7257.0,"International League T20, 2024",29th Match,T20,1707575400000,1707588000000,Complete,Dubai Capitals won by 19 runs,1298.0,Dubai Capitals,DCP,249194.0,1307.0,MI Emirates,MIE,249196.0,94.0,Sheikh Zayed Stadium,Abu Dhabi,+04:00,24.416138,54.453566,1298.0,1705622400000,1708300800000,True,DCP Won,1.0,147.0,9.0,19.6,,,,,2.0,128.0,8.0,19.6,,,,,,,,
82889.0,7257.0,"International League T20, 2024",28th Match,T20,1707561000000,1707573600000,Complete,Gulf Giants won by 3 runs,1319.0,Gulf Giants,GG,249198.0,1300.0,Abu Dhabi Knight Riders,ADKR,249195.0,153.0,Dubai International Cricket Stadium,Dubai,+04:00,25.046842,55.218969,1319.0,1705622400000,1708300800000,True,GG Won,1.0,166.0,3.0,19.6,,,,,2.0,163.0,9.0,19.6,,,,,,,,
82882.0,7257.0,"International League T20, 2024",27th Match,T20,1707489000000,1707501600000,Complete,Dubai Capitals won by 5 wkts,1326.0,Desert Vipers,DV,249199.0,1298.0,Dubai Capitals,DCP,249194.0,153.0,Dubai International Cricket Stadium,Dubai,+04:00,25.046842,55.218969,1298.0,1705622400000,1708300800000,True,DCP Won,1.0,171.0,7.0,19.6,,,,,2.0,172.0,5.0,19.6,,,,,,,,
82875.0,7257.0,"International League T20, 2024",26th Match,T20,1707402600000,1707415200000,Complete,Gulf Giants won by 5 runs,1319.0,Gulf Giants,GG,249198.0,1307.0,MI Emirates,MIE,249196.0,153.0,Dubai International Cricket Stadium,Dubai,+04:00,25.046842,55.218969,1319.0,1705622400000,1708300800000,True,GG Won,1.0,158.0,7.0,19.6,,,,,2.0,153.0,7.0,19.6,,,,,,,,
82873.0,7257.0,"International League T20, 2024",25th Match,T20,1707316200000,1707328800000,Complete,Sharjah Warriors won by 7 wkts,1300.0,Abu Dhabi Knight Riders,ADKR,249195.0,1312.0,Sharjah Warriors,SW,249197.0,94.0,Sheikh Zayed Stadium,Abu Dhabi,+04:00,24.416138,54.453566,1312.0,1705622400000,1708300800000,True,SW Won,1.0,94.0,10.0,17.1,,,,,2.0,95.0,3.0,13.5,,,,,,,,
82868.0,7257.0,"International League T20, 2024",24th Match,T20,1707229800000,1707242400000,Complete,Gulf Giants won by 19 runs,1319.0,Gulf Giants,GG,249198.0,1298.0,Dubai Capitals,DCP,249194.0,153.0,Dubai International Cricket Stadium,Dubai,+04:00,25.046842,55.218969,1319.0,1705622400000,1708300800000,True,GG Won,1.0,126.0,9.0,19.6,,,,,2.0,107.0,10.0,18.3,,,,,,,,
82866.0,7257.0,"International League T20, 2024",23rd Match,T20,1707143400000,1707156000000,Complete,Abu Dhabi Knight Riders won by 7 wkts,1312.0,Sharjah Warriors,SW,249197.0,1300.0,Abu Dhabi Knight Riders,ADKR,249195.0,140.0,Sharjah Cricket Stadium,Sharjah,+04:00,25.33095,55.420902,1300.0,1705622400000,1708300800000,True,ADKR Won,1.0,75.0,10.0,16.6,,,,,2.0,79.0,3.0,10.1,,,,,,,,
82864.0,7257.0,"International League T20, 2024",22nd Match,T20,1707057000000,1707069600000,Complete,Gulf Giants won by 79 runs,1319.0,Gulf Giants,GG,249198.0,1312.0,Sharjah Warriors,SW,249197.0,153.0,Dubai International Cricket Stadium,Dubai,+04:00,25.046842,55.218969,1319.0,1705622400000,1708300800000,True,GG Won,1.0,187.0,6.0,19.6,,,,,2.0,108.0,10.0,17.3,,,,,,,,
82861.0,7257.0,"International League T20, 2024",21st Match,T20,1707042600000,1707055200000,Complete,MI Emirates won by 30 runs,1307.0,MI Emirates,MIE,249196.0,1326.0,Desert Vipers,DV,249199.0,94.0,Sheikh Zayed Stadium,Abu Dhabi,+04:00,24.416138,54.453566,1307.0,1705622400000,1708300800000,True,MIE Won,1.0,188.0,5.0,19.6,,,,,2.0,158.0,8.0,19.6,,,,,,,,
82859.0,7257.0,"International League T20, 2024",20th Match,T20,1706970600000,1706983200000,Complete,Abu Dhabi Knight Riders won by 29 runs,1300.0,Abu Dhabi Knight Riders,ADKR,249195.0,1298.0,Dubai Capitals,DCP,249194.0,94.0,Sheikh Zayed Stadium,Abu Dhabi,+04:00,24.416138,54.453566,1300.0,1705622400000,1708300800000,True,ADKR Won,1.0,183.0,10.0,19.6,,,,,2.0,154.0,8.0,19.6,,,,,,,,
82857.0,7257.0,"International League T20, 2024",19th Match,T20,1706956200000,1706968800000,Complete,Desert Vipers won by 6 wkts,1319.0,Gulf Giants,GG,249198.0,1326.0,Desert Vipers,DV,249199.0,153.0,Dubai International Cricket Stadium,Dubai,+04:00,25.046842,55.218969,1326.0,1705622400000,1708300800000,True,DV Won,1.0,160.0,7.0,19.6,,,,,2.0,161.0,4.0,16.5,,,,,,,,
87089.0,7422.0,Bangladesh Premier League 2024,36th Match,T20,1708173000000,1708185600000,Complete,Chattogram Challengers won by 10 runs,622.0,Chattogram Challengers,CGC,248400.0,1895.0,Durdanto Dhaka,DRD,373877.0,93.0,Zahur Ahmed Chowdhury Stadium,Chattogram,+06:00,22.355898,91.767766,622.0,1705622400000,1709424000000,True,CGC Won,1.0,159.0,6.0,19.6,,,,,2.0,149.0,5.0,19.6,,,,,,,,
87085.0,7422.0,Bangladesh Premier League 2024,35th Match,T20,1708155000000,1708167600000,Complete,Fortune Barishal won by 18 runs,807.0,Fortune Barishal,BRSAL,198246.0,1412.0,Sylhet Strikers,SYST,253023.0,93.0,Zahur Ahmed Chowdhury Stadium,Chattogram,+06:00,22.355898,91.767766,807.0,1705622400000,1709424000000,True,BRSAL Won,1.0,183.0,6.0,19.6,,,,,2.0,165.0,8.0,19.6,,,,,,,,
87078.0,7422.0,Bangladesh Premier League 2024,34th Match,T20,1708088400000,1708101000000,Complete,Rangpur Riders won by 18 runs,256.0,Rangpur Riders,RGR,172309.0,622.0,Chattogram Challengers,CGC,248400.0,93.0,Zahur Ahmed Chowdhury Stadium,Chattogram,+06:00,22.355898,91.767766,256.0,1705622400000,1709424000000,True,RGR Won,1.0,187.0,8.0,19.6,,,,,2.0,169.0,6.0,19.6,,,,,,,,
87075.0,7422.0,Bangladesh Premier League 2024,33rd Match,T20,1708070400000,1708083000000,Complete,Khulna Tigers won by 5 wkts,1895.0,Durdanto Dhaka,DRD,373877.0,627.0,Khulna Tigers,KLT,248424.0,93.0,Zahur Ahmed Chowdhury Stadium,Chattogram,+06:00,22.355898,91.767766,627.0,1705622400000,1709424000000,True,KLT Won,1.0,128.0,7.0,19.6,,,,,2.0,131.0,5.0,15.2,,,,,,,,
87071.0,7422.0,Bangladesh Premier League 2024,32nd Match,T20,1707913800000,1707926400000,Complete,Comilla Victorians won by 7 wkts,627.0,Khulna Tigers,KLT,248424.0,319.0,Comilla Victorians,CV,172369.0,93.0,Zahur Ahmed Chowdhury Stadium,Chattogram,+06:00,22.355898,91.767766,319.0,1705622400000,1709424000000,True,CV Won,1.0,164.0,8.0,19.6,,,,,2.0,168.0,3.0,16.3,,,,,,,,
87064.0,7422.0,Bangladesh Premier League 2024,31st Match,T20,1707895800000,1707908400000,Complete,Fortune Barishal won by 27 runs,807.0,Fortune Barishal,BRSAL,198246.0,1895.0,Durdanto Dhaka,DRD,373877.0,93.0,Zahur Ahmed Chowdhury Stadium,Chattogram,+06:00,22.355898,91.767766,807.0,1705622400000,1709424000000,True,BRSAL Won,1.0,186.0,6.0,19.6,,,,,2.0,159.0,8.0,19.6,,,,,,,,
87061.0,7422.0,Bangladesh Premier League 2024,30th Match,T20,1707827400000,1707840000000,Complete,Rangpur Riders won by 78 runs,256.0,Rangpur Riders,RGR,172309.0,627.0,Khulna Tigers,KLT,248424.0,93.0,Zahur Ahmed Chowdhury Stadium,Chattogram,+06:00,22.355898,91.767766,256.0,1705622400000,1709424000000,True,RGR Won,1.0,219.0,5.0,19.6,,,,,2.0,141.0,10.0,18.2,,,,,,,,
87057.0,7422.0,Bangladesh Premier League 2024,29th Match,T20,1707809400000,1707822000000,Complete,Comilla Victorians won by 73 runs,319.0,Comilla Victorians,CV,172369.0,622.0,Chattogram Challengers,CGC,248400.0,93.0,Zahur Ahmed Chowdhury Stadium,Chattogram,+06:00,22.355898,91.767766,319.0,1705622400000,1709424000000,True,CV Won,1.0,239.0,3.0,19.6,,,,,2.0,166.0,10.0,16.3,,,,,,,,
87050.0,7422.0,Bangladesh Premier League 2024,28th Match,T20,1707568200000,1707580800000,Complete,Fortune Barishal won by 40 runs,807.0,Fortune Barishal,BRSAL,198246.0,1895.0,Durdanto Dhaka,DRD,373877.0,128.0,Shere Bangla National Stadium,Dhaka,+06:00,23.806966,90.363576,807.0,1705622400000,1709424000000,True,BRSAL Won,1.0,189.0,4.0,19.6,,,,,2.0,149.0,10.0,19.4,,,,,,,,
87047.0,7422.0,Bangladesh Premier League 2024,27th Match,T20,1707550200000,1707562800000,Complete,Rangpur Riders won by 53 runs,256.0,Rangpur Riders,RGR,172309.0,622.0,Chattogram Challengers,CGC,248400.0,128.0,Shere Bangla National Stadium,Dhaka,+06:00,23.806966,90.363576,256.0,1705622400000,1709424000000,True,RGR Won,1.0,211.0,3.0,19.6,,,,,2.0,158.0,6.0,19.6,,,,,,,,
87043.0,7422.0,Bangladesh Premier League 2024,26th Match,T20,1707483600000,1707496200000,Complete,Comilla Victorians won by 4 wkts,1895.0,Durdanto Dhaka,DRD,373877.0,319.0,Comilla Victorians,CV,172369.0,128.0,Shere Bangla National Stadium,Dhaka,+06:00,23.806966,90.363576,319.0,1705622400000,1709424000000,True,CV Won,1.0,175.0,4.0,19.6,,,,,2.0,176.0,6.0,19.5,,,,,,,,
87036.0,7422.0,Bangladesh Premier League 2024,25th Match,T20,1707465600000,1707478200000,Complete,Sylhet Strikers won by 5 wkts,627.0,Khulna Tigers,KLT,248424.0,1412.0,Sylhet Strikers,SYST,253023.0,128.0,Shere Bangla National Stadium,Dhaka,+06:00,23.806966,90.363576,1412.0,1705622400000,1709424000000,True,SYST Won,1.0,153.0,4.0,19.6,,,,,2.0,159.0,5.0,18.6,,,,,,,,
87033.0,7422.0,Bangladesh Premier League 2024,24th Match,T20,1707309000000,1707321600000,Complete,Sylhet Strikers won by 5 wkts,1895.0,Durdanto Dhaka,DRD,373877.0,1412.0,Sylhet Strikers,SYST,253023.0,128.0,Shere Bangla National Stadium,Dhaka,+06:00,23.806966,90.363576,1412.0,1705622400000,1709424000000,True,SYST Won,1.0,124.0,8.0,19.6,,,,,2.0,129.0,5.0,18.6,,,,,,,,
87026.0,7422.0,Bangladesh Premier League 2024,23rd Match,T20,1707291000000,1707303600000,Complete,Comilla Victorians won by 34 runs,319.0,Comilla Victorians,CV,172369.0,627.0,Khulna Tigers,KLT,248424.0,128.0,Shere Bangla National Stadium,Dhaka,+06:00,23.806966,90.363576,319.0,1705622400000,1709424000000,True,CV Won,1.0,149.0,7.0,19.6,,,,,2.0,115.0,10.0,18.5,,,,,,,,
87019.0,7422.0,Bangladesh Premier League 2024,22nd Match,T20,1707222600000,1707235200000,Complete,Chattogram Challengers won by 16 runs,622.0,Chattogram Challengers,CGC,248400.0,807.0,Fortune Barishal,BRSAL,198246.0,128.0,Shere Bangla National Stadium,Dhaka,+06:00,23.806966,90.363576,622.0,1705622400000,1709424000000,True,CGC Won,1.0,145.0,5.0,19.6,,,,,2.0,129.0,8.0,19.6,,,,,,,,
87015.0,7422.0,Bangladesh Premier League 2024,21st Match,T20,1707204600000,1707217200000,Complete,Rangpur Riders won by 60 runs,256.0,Rangpur Riders,RGR,172309.0,1895.0,Durdanto Dhaka,DRD,373877.0,128.0,Shere Bangla National Stadium,Dhaka,+06:00,23.806966,90.363576,256.0,1705622400000,1709424000000,True,RGR Won,1.0,175.0,4.0,19.6,,,,,2.0,115.0,10.0,17.6,,,,,,,,
87012.0,7422.0,Bangladesh Premier League 2024,20th Match,T20,1706963400000,1706976000000,Complete,Rangpur Riders won by 77 runs,256.0,Rangpur Riders,RGR,172309.0,1412.0,Sylhet Strikers,SYST,253023.0,379.0,Sylhet International Cricket Stadium,Sylhet,+06:00,24.898183,91.863608,256.0,1705622400000,1709424000000,True,RGR Won,1.0,162.0,7.0,19.6,,,,,2.0,85.0,10.0,16.5,,,,,,,,
87005.0,7422.0,Bangladesh Premier League 2024,19th Match,T20,1706945400000,1706958000000,Complete,Fortune Barishal won by 5 wkts,627.0,Khulna Tigers,KLT,248424.0,807.0,Fortune Barishal,BRSAL,198246.0,379.0,Sylhet International Cricket Stadium,Sylhet,+06:00,24.898183,91.863608,807.0,1705622400000,1709424000000,True,BRSAL Won,1.0,155.0,8.0,19.6,,,,,2.0,156.0,5.0,19.4,,,,,,,,
80117.0,7044.0,"SA20, 2024",Final,T20,1707579000000,1707591600000,Complete,Sunrisers Eastern Cape won by 89 runs,1256.0,Sunrisers Eastern Cape,SEC,248451.0,1242.0,Durban Super Giants,DSG,248403.0,52.0,Newlands,Cape Town,+02:00,-33.979629,18.459466,1256.0,1704844800000,1707696000000,True,SEC Won,1.0,204.0,3.0,19.6,,,,,2.0,115.0,10.0,16.6,,,,,,,,
80110.0,7044.0,"SA20, 2024",Qualifier 2,T20,1707406200000,1707418800000,Complete,Durban Super Giants won by 69 runs,1242.0,Durban Super Giants,DSG,248403.0,1249.0,Joburg Super Kings,JSK,248422.0,88.0,The Wanderers Stadium,Johannesburg,+02:00,-26.131141,28.057397,1242.0,1704844800000,1707696000000,True,DSG Won,1.0,211.0,6.0,19.6,,,,,2.0,142.0,10.0,17.4,,,,,,,,
80106.0,7044.0,"SA20, 2024",Eliminator,T20,1707319800000,1707332400000,Complete,Joburg Super Kings won by 9 wkts,1235.0,Paarl Royals,PR,248440.0,1249.0,Joburg Super Kings,JSK,248422.0,88.0,The Wanderers Stadium,Johannesburg,+02:00,-26.131141,28.057397,1249.0,1704844800000,1707696000000,True,JSK Won,1.0,138.0,10.0,18.5,,,,,2.0,139.0,1.0,13.2,,,,,,,,
80103.0,7044.0,"SA20, 2024",Qualifier 1,T20,1707233400000,1707246000000,Complete,Sunrisers Eastern Cape won by 51 runs,1256.0,Sunrisers Eastern Cape,SEC,248451.0,1242.0,Durban Super Giants,DSG,248403.0,52.0,Newlands,Cape Town,+02:00,-33.979629,18.459466,1256.0,1704844800000,1707696000000,True,SEC Won,1.0,157.0,8.0,19.6,,,,,2.0,106.0,10.0,19.3,,,,,,,,
80099.0,7044.0,"SA20, 2024",30th Match,T20,1707053400000,1707066000000,Complete,Sunrisers Eastern Cape won by 5 wkts,1235.0,Paarl Royals,PR,248440.0,1256.0,Sunrisers Eastern Cape,SEC,248451.0,73.0,St George's Park,Gqeberha,+02:00,-33.966545,25.610332,1256.0,1704844800000,1707696000000,True,SEC Won,1.0,159.0,7.0,19.6,,,,,2.0,165.0,5.0,19.5,,,,,,,,
80096.0,7044.0,"SA20, 2024",29th Match,T20,1706974200000,1706986800000,Complete,Joburg Super Kings won by 7 wkts,1242.0,Durban Super Giants,DSG,248403.0,1249.0,Joburg Super Kings,JSK,248422.0,88.0,The Wanderers Stadium,Johannesburg,+02:00,-26.131141,28.057397,1249.0,1704844800000,1707696000000,True,JSK Won,1.0,203.0,6.0,19.6,,,,,2.0,209.0,3.0,19.5,,,,,,,,
80092.0,7044.0,"SA20, 2024",28th Match,T20,1706959800000,1706972400000,Complete,Pretoria Capitals won by 4 wkts,1228.0,MI Cape Town,MICT,248432.0,1263.0,Pretoria Capitals,PC,248443.0,52.0,Newlands,Cape Town,+02:00,-33.979629,18.459466,1263.0,1704844800000,1707696000000,True,PC Won,1.0,163.0,9.0,19.6,,,,,2.0,167.0,6.0,19.4,,,,,,,,
74779.0,6725.0,Ranji Trophy 2023-24,Elite Group A,TEST,1708056000000,1708340400000,Complete,Saurashtra won by an innings and 243 runs,461.0,Manipur,MNP,172509.0,94.0,Saurashtra,SAUR,172186.0,1748.0,Sanosara Cricket Ground A,Rajkot,+05:30,22.4894023,68.2051849,94.0,1704412800000,1710547200000,True,SAUR Won,1.0,142.0,10.0,44.6,3.0,144.0,10.0,51.5,2.0,529.0,6.0,104.1,,,,,,True,,
74835.0,6725.0,Ranji Trophy 2023-24,Elite Group B,TEST,1708056000000,1708340400000,Complete,Mumbai won by an innings and 80 runs,162.0,Assam,ASM,172230.0,95.0,Mumbai,MUM,172187.0,341.0,Sharad Pawar Cricket Academy BKC,Mumbai,+05:30,19.061309,72.866381,95.0,1704412800000,1710547200000,True,MUM Won,1.0,84.0,10.0,32.1,3.0,108.0,10.0,33.0,2.0,272.0,10.0,64.4,,,,,,,,
74814.0,6725.0,Ranji Trophy 2023-24,Elite Group D,TEST,1708056000000,1708340400000,Complete,Himachal Pradesh won by an innings and 63 runs,251.0,Himachal Pradesh,HP,172304.0,465.0,Puducherry,PDC,172513.0,543.0,Cricket Association Puducherry Siechem Ground,Puducherry,+05:30,11.912200,79.737396,251.0,1704412800000,1710547200000,True,Complete,1.0,463.0,10.0,126.2,,,,,2.0,202.0,10.0,57.5,3.0,198.0,10.0,43.3,,,True,
74821.0,6725.0,Ranji Trophy 2023-24,Elite Group B,TEST,1708054200000,1708338600000,Complete,Bengal won by an innings and 204 runs,460.0,Bihar,BIH,172508.0,232.0,Bengal,BEN,172285.0,31.0,Eden Gardens,Kolkata,+05:30,22.564527,88.343247,232.0,1704412800000,1710547200000,True,BEN Won,1.0,95.0,10.0,46.4,3.0,112.0,10.0,35.1,2.0,411.0,5.0,104.1,,,,,,True,,
74772.0,6725.0,Ranji Trophy 2023-24,Plate 2nd Semi Final,TEST,1707451200000,1707822000000,Complete,Meghalaya won by 6 wkts,463.0,Mizoram,MIZ,172511.0,462.0,Meghalaya,MGLY,172510.0,593.0,Mangaldoi Sports Association Ground,"Ward No 2, Mangaldoi",+05:30,26.4433028,92.0343162,462.0,1704412800000,1710547200000,True,MGLY Won,1.0,144.0,10.0,46.3,3.0,153.0,10.0,38.0,2.0,145.0,10.0,44.4,4.0,156.0,4.0,35.5,,,,
74769.0,6725.0,Ranji Trophy 2023-24,Plate 1st Semi Final,TEST,1707451200000,1707822000000,Complete,Hyderabad won by an innings and 68 runs,242.0,Hyderabad,HYD,172295.0,464.0,Nagaland,NGL,172512.0,80.0,Rajiv Gandhi International Stadium,Hyderabad,+05:30,17.406495,78.550451,242.0,1704412800000,1710547200000,True,HYD Won,1.0,462.0,8.0,107.0,,,,,2.0,206.0,10.0,60.1,3.0,188.0,10.0,58.3,,,True,True
74692.0,6725.0,Ranji Trophy 2023-24,Elite Group B,TEST,1707451200000,1707735600000,Complete,Match drawn,241.0,Andhra,AP,172294.0,93.0,Uttar Pradesh,UP,172185.0,411.0,Dr PVG Raju ACA Sports Complex,Vizianagaram,+05:30,18.106658,83.395551,,1704412800000,1710547200000,True,Match drawn,1.0,261.0,10.0,95.1,3.0,429.0,9.0,144.6,2.0,198.0,10.0,51.5,,,,,True,,,
74702.0,6725.0,Ranji Trophy 2023-24,Elite Group C,TEST,1707451200000,1707735600000,Complete,Match drawn,128.0,Karnataka,KAR,172203.0,92.0,Tamil Nadu,TN,172184.0,11.0,MA Chidambaram Stadium,Chennai,+05:30,13.06282,80.279274,,1704412800000,1710547200000,True,Match drawn,1.0,366.0,10.0,119.4,3.0,139.0,10.0,56.4,2.0,151.0,10.0,69.2,4.0,338.0,8.0,104.6,,,,
74720.0,6725.0,Ranji Trophy 2023-24,Elite Group A,TEST,1707451200000,1707735600000,Complete,Saurashtra won by 218 runs,94.0,Saurashtra,SAUR,172186.0,171.0,Rajasthan,RAJ,172239.0,76.0,Sawai Mansingh Stadium,Jaipur,+05:30,26.894012,75.803225,94.0,1704412800000,1710547200000,True,SAUR Won,1.0,328.0,10.0,116.5,3.0,234.0,6.0,63.6,2.0,257.0,10.0,91.2,4.0,87.0,10.0,28.4,True,,,
74734.0,6725.0,Ranji Trophy 2023-24,Elite Group D,TEST,1707451200000,1707735600000,Complete,Madhya Pradesh won by an innings and 52 runs,167.0,Madhya Pradesh,MP,172236.0,170.0,Baroda,BRD,172238.0,152.0,Holkar Cricket Stadium,Indore,+05:30,22.724371,75.879701,167.0,1704412800000,1710547200000,True,MP Won,1.0,454.0,10.0,129.3,,,,,2.0,132.0,10.0,47.1,3.0,270.0,10.0,98.3,,,True,
74755.0,6725.0,Ranji Trophy 2023-24,Elite Group A,TEST,1707451200000,1707735600000,Complete,Services won by an innings and 196 runs,461.0,Manipur,MNP,172509.0,250.0,Services,SER,172303.0,535.0,ADSA Railways Cricket Ground,"Vallabh Vidyanagar, Anand",+05:30,22.550659,72.923569,250.0,1704412800000,1710547200000,True,SER Won,1.0,67.0,10.0,34.2,3.0,70.0,10.0,40.3,2.0,333.0,10.0,106.1,,,,,,,,
74678.0,6725.0,Ranji Trophy 2023-24,Elite Group B,TEST,1707451200000,1707735600000,Complete,Kerala won by 109 runs,244.0,Kerala,KER,172297.0,232.0,Bengal,BEN,172285.0,470.0,St Xavier's College Ground,"Thumba, Thiruvananthapuram",+05:30,8.5602859,76.8449651,244.0,1704412800000,1710547200000,True,KER Won,1.0,363.0,10.0,127.3,3.0,265.0,6.0,64.2,2.0,180.0,10.0,51.1,4.0,339.0,10.0,87.4,True,,,
74706.0,6725.0,Ranji Trophy 2023-24,Elite Group C,TEST,1707451200000,1707735600000,Complete,Gujarat won by 299 runs,163.0,Gujarat,GUJ,172232.0,245.0,Punjab,PUN,172298.0,46.0,Punjab Cricket Association IS Bindra Stadium,Mohali,+05:30,30.690905,76.737455,163.0,1704412800000,1710547200000,True,GUJ Won,1.0,339.0,10.0,94.3,3.0,290.0,8.0,62.0,2.0,219.0,10.0,56.5,4.0,111.0,10.0,39.4,True,,,
74727.0,6725.0,Ranji Trophy 2023-24,Elite Group C,TEST,1707451200000,1707735600000,Complete,Match drawn,595.0,Chandigarh,CDG,244269.0,247.0,Tripura,TRI,172300.0,120.0,Sector 16 Stadium,Chandigarh,+05:30,30.741797,76.774915,,1704412800000,1710547200000,True,Match drawn,1.0,356.0,10.0,116.0,3.0,359.0,3.0,74.0,2.0,438.0,10.0,121.0,4.0,121.0,3.0,34.4,True,,,
74741.0,6725.0,Ranji Trophy 2023-24,Elite Group A,TEST,1707451200000,1707735600000,Complete,Vidarbha won by 10 wkts,254.0,Maharashtra,MAH,172307.0,248.0,Vidarbha,VID,172301.0,287.0,Maharashtra Cricket Association Stadium,Pune,+05:30,18.674498,73.706516,248.0,1704412800000,1710547200000,True,VID Won,1.0,208.0,10.0,56.4,3.0,371.0,10.0,121.5,2.0,552.0,10.0,126.2,4.0,28.0,,5.6,,,,
74762.0,6725.0,Ranji Trophy 2023-24,Elite Group D,TEST,1707451200000,1707735600000,Complete,Delhi won by 76 runs,81.0,Delhi,DEL,172175.0,251.0,Himachal Pradesh,HP,172304.0,155.0,Himachal Pradesh Cricket Association Stadium,Dharamsala,+05:30,32.197790,76.325811,81.0,1704412800000,1710547200000,True,DEL Won,1.0,264.0,10.0,70.6,3.0,381.0,6.0,61.3,2.0,319.0,10.0,88.2,4.0,250.0,10.0,61.4,True,,,
74685.0,6725.0,Ranji Trophy 2023-24,Elite Group D,TEST,1707451200000,1707735600000,Complete,Jammu and Kashmir won by 19 runs,252.0,Jammu and Kashmir,JK,172305.0,465.0,Puducherry,PDC,172513.0,543.0,Cricket Association Puducherry Siechem Ground,Puducherry,+05:30,11.912200,79.737396,252.0,1704412800000,1710547200000,True,JK Won,1.0,106.0,10.0,28.4,3.0,152.0,10.0,67.5,2.0,172.0,10.0,55.1,4.0,67.0,10.0,35.3,,,,
74713.0,6725.0,Ranji Trophy 2023-24,Elite Group C,TEST,1707451200000,1707735600000,Complete,Railways won by 63 runs,246.0,Railways,RLYS,172299.0,253.0,Goa,GOA,172306.0,308.0,Lalabhai Contractor Stadium,Surat,+05:30,21.155455,72.769226,246.0,1704412800000,1710547200000,True,RLYS Won,1.0,297.0,10.0,90.5,3.0,208.0,10.0,63.3,2.0,200.0,10.0,68.2,4.0,242.0,10.0,65.2,,,,
74695.0,6725.0,Ranji Trophy 2023-24,Elite Group B,TEST,1707450300000,1707734700000,Complete,Match drawn,95.0,Mumbai,MUM,172187.0,375.0,Chhattisgarh,CG,172428.0,335.0,Shaheed Veer Narayan Singh International Stadium,Raipur,+05:30,21.203523,81.823929,,1704412800000,1710547200000,True,Match drawn,1.0,351.0,10.0,101.4,3.0,253.0,6.0,82.0,2.0,350.0,10.0,106.1,,,,,True,,,
74730.0,6725.0,Ranji Trophy 2023-24,Elite Group A,TEST,1707449400000,1707733800000,Complete,Haryana won by an innings and 205 runs,200.0,Haryana,HAR,172260.0,243.0,Jharkhand,JHKD,172296.0,49.0,Keenan Stadium,Jamshedpur,+05:30,22.805692,86.19144,200.0,1704412800000,1710547200000,True,HAR Won,1.0,509.0,10.0,134.5,,,,,2.0,119.0,10.0,39.3,3.0,185.0,10.0,61.4,,,True,
74748.0,6725.0,Ranji Trophy 2023-24,Elite Group D,TEST,1707449400000,1707733800000,Complete,Uttarakhand won by 162 runs,467.0,Uttarakhand,UTK,172515.0,249.0,Odisha,ODSA,172302.0,103.0,Barabati Stadium,Cuttack,+05:30,20.481065,85.868545,467.0,1704412800000,1710547200000,True,UTK Won,1.0,342.0,10.0,131.3,3.0,203.0,8.0,55.6,2.0,169.0,10.0,56.4,4.0,214.0,10.0,91.4,True,,,
74699.0,6725.0,Ranji Trophy 2023-24,Elite Group B,TEST,1707447600000,1707732000000,Complete,Assam won by 9 wkts,162.0,Assam,ASM,172230.0,460.0,Bihar,BIH,172508.0,380.0,Barsapara Cricket Stadium,Guwahati,+05:30,26.094292,91.785187,162.0,1704412800000,1710547200000,True,ASM Won,1.0,405.0,10.0,121.4,4.0,100.0,1.0,14.2,2.0,207.0,10.0,71.5,3.0,292.0,10.0,120.6,,,True,
74580.0,6725.0,Ranji Trophy 2023-24,Elite Group A,TEST,1706846400000,1707130800000,Complete,Saurashtra won by 43 runs,94.0,Saurashtra,SAUR,172186.0,254.0,Maharashtra,MAH,172307.0,1804.0,"Indira Gandhi Stadium, Park Maidan",Solapur,+05:30,17.6722984,75.8986931,94.0,1704412800000,1710547200000,True,SAUR Won,1.0,202.0,10.0,60.1,3.0,164.0,10.0,43.2,2.0,159.0,10.0,45.4,4.0,164.0,10.0,51.4,,,,
74601.0,6725.0,Ranji Trophy 2023-24,Elite Group D,TEST,1706846400000,1707130800000,Complete,Match drawn,251.0,Himachal Pradesh,HP,172304.0,167.0,Madhya Pradesh,MP,172236.0,155.0,Himachal Pradesh Cricket Association Stadium,Dharamsala,+05:30,32.197790,76.325811,,1704412800000,1710547200000,True,Match drawn,1.0,169.0,10.0,54.3,3.0,42.0,5.0,22.6,2.0,217.0,10.0,71.4,,,,,,,,
74615.0,6725.0,Ranji Trophy 2023-24,Elite Group A,TEST,1706846400000,1707130800000,Complete,Services won by 1 run,250.0,Services,SER,172303.0,200.0,Haryana,HAR,172260.0,288.0,Ch Bansi Lal Cricket Stadium,Rohtak,+05:30,28.854644,76.46442,250.0,1704412800000,1710547200000,True,SER Won,1.0,108.0,10.0,51.5,3.0,140.0,10.0,38.3,2.0,103.0,10.0,39.2,4.0,144.0,10.0,41.2,,,,
74653.0,6725.0,Ranji Trophy 2023-24,Elite Group B,TEST,1706846400000,1707130800000,Complete,Match drawn,93.0,Uttar Pradesh,UP,172185.0,162.0,Assam,ASM,172230.0,32.0,Green Park,Kanpur,+05:30,26.482069,80.34773,,1704412800000,1710547200000,True,Match drawn,1.0,548.0,8.0,128.3,,,,,2.0,316.0,2.0,113.0,,,,,,,,True
74587.0,6725.0,Ranji Trophy 2023-24,Elite Group C,TEST,1706846400000,1707130800000,Complete,Tripura won by 156 runs,247.0,Tripura,TRI,172300.0,163.0,Gujarat,GUJ,172232.0,50.0,Narendra Modi Stadium,Ahmedabad,+05:30,23.091785,72.597465,247.0,1704412800000,1710547200000,True,TRI Won,1.0,146.0,10.0,47.4,3.0,343.0,10.0,81.6,2.0,172.0,10.0,49.3,4.0,161.0,10.0,52.3,,,,
74604.0,6725.0,Ranji Trophy 2023-24,Elite Group A,TEST,1706846400000,1707130800000,Complete,Match drawn,171.0,Rajasthan,RAJ,172239.0,248.0,Vidarbha,VID,172301.0,76.0,Sawai Mansingh Stadium,Jaipur,+05:30,26.894012,75.803225,,1704412800000,1710547200000,True,Match drawn,1.0,432.0,10.0,130.2,,,,,2.0,391.0,10.0,125.3,,,,,,,,
74622.0,6725.0,Ranji Trophy 2023-24,Elite Group D,TEST,1706846400000,1707130800000,Complete,Match drawn,170.0,Baroda,BRD,172238.0,81.0,Delhi,DEL,172175.0,321.0,Palam A Stadium,Delhi,+05:30,28.591533,77.133741,,1704412800000,1710547200000,True,Match drawn,1.0,435.0,9.0,146.5,,,,,2.0,177.0,10.0,56.2,3.0,68.0,1.0,33.6,,,True,True
74657.0,6725.0,Ranji Trophy 2023-24,Elite Group C,TEST,1706846400000,1707130800000,Complete,Karnataka won by 1 wkt,246.0,Railways,RLYS,172299.0,128.0,Karnataka,KAR,172203.0,308.0,Lalabhai Contractor Stadium,Surat,+05:30,21.155455,72.769226,128.0,1704412800000,1710547200000,True,KAR Won,1.0,155.0,10.0,55.6,3.0,244.0,10.0,71.6,2.0,174.0,10.0,50.5,4.0,229.0,9.0,82.4,,,,
74671.0,6725.0,Ranji Trophy 2023-24,Plate,TEST,1706846400000,1707130800000,Complete,Hyderabad won by an innings and 73 runs,463.0,Mizoram,MIZ,172511.0,242.0,Hyderabad,HYD,172295.0,80.0,Rajiv Gandhi International Stadium,Hyderabad,+05:30,17.406495,78.550451,242.0,1704412800000,1710547200000,True,HYD Won,1.0,199.0,10.0,55.6,3.0,193.0,10.0,43.1,2.0,465.0,9.0,118.2,,,,,,True,,
74576.0,6725.0,Ranji Trophy 2023-24,Elite Group C,TEST,1706846400000,1707130800000,Complete,Tamil Nadu won by 7 wkts,253.0,Goa,GOA,172306.0,92.0,Tamil Nadu,TN,172184.0,310.0,Goa Cricket Association Academy Ground,Porvorim,+05:30,15.524168,73.829683,92.0,1704412800000,1710547200000,True,TN Won,1.0,241.0,10.0,75.5,3.0,168.0,10.0,65.5,2.0,273.0,10.0,90.2,4.0,142.0,3.0,49.5,,,,
74608.0,6725.0,Ranji Trophy 2023-24,Elite Group D,TEST,1706846400000,1707130800000,Complete,Match drawn,252.0,Jammu and Kashmir,JK,172305.0,467.0,Uttarakhand,UTK,172515.0,1251.0,Hostel Ground JKCA,Jammu,+05:30,34.0900416,74.8124651,,1704412800000,1710547200000,True,Match drawn,1.0,168.0,2.0,38.6,,,,,,,,,,,,,,,,
74664.0,6725.0,Ranji Trophy 2023-24,Elite Group C,TEST,1706846400000,1707130800000,Complete,Match drawn,245.0,Punjab,PUN,172298.0,595.0,Chandigarh,CDG,244269.0,120.0,Sector 16 Stadium,Chandigarh,+05:30,30.741797,76.774915,,1704412800000,1710547200000,True,Match drawn,1.0,477.0,2.0,106.6,,,,,,,,,,,,,,,,
74646.0,6725.0,Ranji Trophy 2023-24,Elite Group B,TEST,1706845500000,1707129900000,Complete,Match drawn,244.0,Kerala,KER,172297.0,375.0,Chhattisgarh,CG,172428.0,335.0,Shaheed Veer Narayan Singh International Stadium,Raipur,+05:30,21.203523,81.823929,,1704412800000,1710547200000,True,Match drawn,1.0,350.0,10.0,110.1,3.0,251.0,5.0,55.2,2.0,312.0,10.0,103.0,4.0,79.0,1.0,22.0,True,,,
74636.0,6725.0,Ranji Trophy 2023-24,Elite Group D,TEST,1706844600000,1707129000000,Complete,Match drawn,249.0,Odisha,ODSA,172302.0,465.0,Puducherry,PDC,172513.0,103.0,Barabati Stadium,Cuttack,+05:30,20.481065,85.868545,,1704412800000,1710547200000,True,Match drawn,1.0,300.0,5.0,112.6,3.0,201.0,10.0,67.6,2.0,284.0,10.0,86.2,4.0,175.0,8.0,55.6,,,,
74667.0,6725.0,Ranji Trophy 2023-24,Plate,TEST,1706844600000,1707129000000,Complete,Nagaland won by an innings and 38 runs,468.0,Arunachal Pradesh,ARNP,172516.0,464.0,Nagaland,NGL,172512.0,537.0,"Nagaland Cricket Stadium, Sovima",Dimapur,+05:30,25.807779,93.742126,464.0,1704412800000,1710547200000,True,NGL Won,1.0,124.0,10.0,39.1,3.0,180.0,10.0,65.3,2.0,342.0,10.0,81.2,,,,,,,,
74643.0,6725.0,Ranji Trophy 2023-24,Elite Group B,TEST,1706844600000,1707129000000,Complete,Andhra won by an innings and 157 runs,460.0,Bihar,BIH,172508.0,241.0,Andhra,AP,172294.0,234.0,Moin-ul-Haq Stadium,Patna,+05:30,25.607925,85.167619,241.0,1704412800000,1710547200000,True,AP Won,1.0,182.0,10.0,86.5,3.0,124.0,10.0,51.1,2.0,463.0,10.0,119.2,,,,,,,,
74629.0,6725.0,Ranji Trophy 2023-24,Elite Group B,TEST,1706844600000,1707129000000,Complete,Mumbai won by an innings and 4 runs,95.0,Mumbai,MUM,172187.0,232.0,Bengal,BEN,172285.0,31.0,Eden Gardens,Kolkata,+05:30,22.564527,88.343247,95.0,1704412800000,1710547200000,True,MUM Won,1.0,412.0,10.0,94.3,,,,,2.0,199.0,10.0,55.6,3.0,209.0,10.0,59.4,,,True,
74594.0,6725.0,Ranji Trophy 2023-24,Elite Group A,TEST,1706842800000,1707127200000,Complete,Jharkhand won by an innings and 102 runs,461.0,Manipur,MNP,172509.0,243.0,Jharkhand,JHKD,172296.0,49.0,Keenan Stadium,Jamshedpur,+05:30,22.805692,86.19144,243.0,1704412800000,1710547200000,True,JHKD Won,1.0,170.0,10.0,62.4,3.0,232.0,10.0,93.3,2.0,504.0,5.0,119.1,,,,,,True,,
74674.0,6725.0,Ranji Trophy 2023-24,Plate,TEST,1706841900000,1707126300000,Complete,Meghalaya won by 6 wkts,466.0,Sikkim,SKM,172514.0,462.0,Meghalaya,MGLY,172510.0,1265.0,SICA ground,Rangpo,+05:30,27.177401,88.530701,462.0,1704412800000,1710547200000,True,MGLY Won,1.0,284.0,10.0,95.2,3.0,80.0,10.0,31.4,2.0,191.0,10.0,51.1,4.0,177.0,4.0,50.2,,,,
79536.0,7009.0,The Ford Trophy 2023-24,28th Match,ODI,1708205400000,1708234200000,Complete,Otago won by 8 wkts,314.0,Wellington,WEL,172364.0,105.0,Otago,OTG,172197.0,82.0,John Davies Oval,Queenstown,+13:00,-45.016205,168.738638,105.0,1700870400000,1708905600000,True,OTG Won,1.0,57.0,10.0,22.3,,,,,2.0,60.0,2.0,9.5,,,,,,,,
79543.0,7009.0,The Ford Trophy 2023-24,29th Match,ODI,1708205400000,1708234200000,Complete,Canterbury won by 8 wkts,294.0,Northern Knights,NK,172343.0,312.0,Canterbury,CNTBRY,172362.0,393.0,Bay Oval,Mount Maunganui,+13:00,-37.670300,176.212006,312.0,1700870400000,1708905600000,True,CNTBRY Won,1.0,160.0,10.0,44.5,,,,,2.0,164.0,2.0,35.6,,,,,,,,
79546.0,7009.0,The Ford Trophy 2023-24,30th Match,ODI,1708205400000,1708234200000,Complete,Auckland won by 5 wkts,313.0,Central Districts,CD,172363.0,186.0,Auckland,AKL,172246.0,418.0,Eden Park Outer Oval,Auckland,+13:00,-36.874039,174.745636,186.0,1700870400000,1708905600000,True,AKL Won,1.0,243.0,10.0,49.4,,,,,2.0,247.0,5.0,48.5,,,,,,,,
79524.0,7009.0,The Ford Trophy 2023-24,25th Match,ODI,1707859800000,1707888600000,Complete,Otago won by 6 wkts,294.0,Northern Knights,NK,172343.0,105.0,Otago,OTG,172197.0,82.0,John Davies Oval,Queenstown,+13:00,-45.016205,168.738638,105.0,1700870400000,1708905600000,True,OTG Won,1.0,184.0,10.0,48.1,,,,,2.0,187.0,4.0,39.1,,,,,,,,
79529.0,7009.0,The Ford Trophy 2023-24,26th Match,ODI,1707859800000,1707888600000,Complete,Canterbury won by 183 runs,312.0,Canterbury,CNTBRY,172362.0,313.0,Central Districts,CD,172363.0,371.0,Hagley Oval,Christchurch,+13:00,-43.535831,172.624863,312.0,1700870400000,1708905600000,True,CNTBRY Won,1.0,349.0,8.0,49.6,,,,,2.0,166.0,10.0,39.2,,,,,,,,
79531.0,7009.0,The Ford Trophy 2023-24,27th Match,ODI,1707859800000,1707888600000,Complete,Auckland won by 4 wkts,314.0,Wellington,WEL,172364.0,186.0,Auckland,AKL,172246.0,45.0,Basin Reserve,Wellington,+13:00,-41.161720,175.323914,186.0,1700870400000,1708905600000,True,AKL Won,1.0,285.0,8.0,49.6,,,,,2.0,289.0,6.0,49.6,,,,,,,,
79517.0,7009.0,The Ford Trophy 2023-24,24th Match,ODI,1707526800000,1707555600000,Complete,No result,312.0,Canterbury,CNTBRY,172362.0,294.0,Northern Knights,NK,172343.0,371.0,Hagley Oval,Christchurch,+13:00,-43.535831,172.624863,,1700870400000,1708905600000,True,No Result,1.0,273.0,10.0,49.3,,,,,2.0,29.0,2.0,9.6,,,,,,,,
79510.0,7009.0,The Ford Trophy 2023-24,22nd Match,ODI,1707514200000,1707543000000,Complete,Otago won by 15 runs,105.0,Otago,OTG,172197.0,314.0,Wellington,WEL,172364.0,45.0,Basin Reserve,Wellington,+13:00,-41.161720,175.323914,105.0,1700870400000,1708905600000,True,OTG Won,1.0,226.0,10.0,44.4,,,,,2.0,211.0,10.0,48.1,,,,,,,,
79515.0,7009.0,The Ford Trophy 2023-24,23rd Match,ODI,1707514200000,1707543000000,Complete,Central Districts won by 6 wkts,186.0,Auckland,AKL,172246.0,313.0,Central Districts,CD,172363.0,44.0,McLean Park,Napier,+13:00,-39.50178,176.913015,313.0,1700870400000,1708905600000,True,CD Won,1.0,233.0,10.0,49.1,,,,,2.0,234.0,4.0,49.1,,,,,,,,
79494.0,7009.0,The Ford Trophy 2023-24,19th Match,ODI,1707168600000,1707197400000,Complete,Otago won by 65 runs,105.0,Otago,OTG,172197.0,313.0,Central Districts,CD,172363.0,116.0,University Oval,Dunedin,+13:00,-45.874401,170.505005,105.0,1700870400000,1708905600000,True,OTG Won,1.0,213.0,9.0,49.6,,,,,2.0,148.0,10.0,37.5,,,,,,,,
79501.0,7009.0,The Ford Trophy 2023-24,20th Match,ODI,1707168600000,1707197400000,Complete,Canterbury won by 119 runs,312.0,Canterbury,CNTBRY,172362.0,186.0,Auckland,AKL,172246.0,418.0,Eden Park Outer Oval,Auckland,+13:00,-36.874039,174.745636,312.0,1700870400000,1708905600000,True,CNTBRY Won,1.0,287.0,7.0,49.6,,,,,2.0,168.0,10.0,39.6,,,,,,,,
79508.0,7009.0,The Ford Trophy 2023-24,21st Match,ODI,1707168600000,1707197400000,Complete,Wellington won by 45 runs,314.0,Wellington,WEL,172364.0,294.0,Northern Knights,NK,172343.0,45.0,Basin Reserve,Wellington,+13:00,-41.161720,175.323914,314.0,1700870400000,1708905600000,True,WEL Won,1.0,330.0,8.0,49.6,,,,,2.0,285.0,10.0,48.6,,,,,,,,
83050.0,7261.0,CSA Four-Day Series Division One 2023-24,23rd Match,TEST,1707897600000,1708182000000,Complete,Match drawn,1759.0,Boland,BOL,349610.0,157.0,Lions,LIONS,172224.0,88.0,The Wanderers Stadium,Johannesburg,+02:00,-26.131141,28.057397,,1699056000000,1709596800000,True,Match drawn,1.0,226.0,10.0,83.1,3.0,475.0,9.0,142.0,2.0,478.0,10.0,128.5,,,,,,,,
83036.0,7261.0,CSA Four-Day Series Division One 2023-24,21st Match,TEST,1707897600000,1708182000000,Complete,Western Province won by 64 runs,917.0,Western Province,WPR,248460.0,155.0,Warriors,WAR,172222.0,73.0,St George's Park,Gqeberha,+02:00,-33.966545,25.610332,917.0,1699056000000,1709596800000,True,WPR Won,1.0,141.0,10.0,42.4,3.0,203.0,10.0,59.1,2.0,111.0,10.0,31.0,4.0,169.0,10.0,57.0,,,,
83053.0,7261.0,CSA Four-Day Series Division One 2023-24,24th Match,TEST,1707897600000,1708182000000,Complete,Dolphins won by 10 wkts,90.0,Dolphins,DOL,172183.0,922.0,North West,NWEST,248439.0,493.0,North-West University No1 Ground,Potchefstroom,+02:00,-26.714530,27.097048,90.0,1699056000000,1709596800000,True,Complete,1.0,643.0,8.0,119.1,4.0,8.0,,2.1,2.0,282.0,10.0,87.5,3.0,366.0,10.0,100.6,,,True,True
83043.0,7261.0,CSA Four-Day Series Division One 2023-24,22nd Match,TEST,1707894000000,1708178400000,Complete,Match drawn,1766.0,KwaZulu-Natal Inland,KZNIN,349611.0,89.0,Titans,TIT,172182.0,206.0,City Oval,Pietermaritzburg,+02:00,-29.551181,30.407238,,1699056000000,1709596800000,True,Match drawn,1.0,426.0,10.0,158.6,,,,,2.0,252.0,1.0,69.6,,,,,,,,
79272.0,6990.0,Sheffield Shield 2023-24,24th Match,TEST,1708041600000,1708326000000,Complete,Queensland won by 7 wkts,158.0,South Australia,SAUS,172225.0,164.0,Queensland,QL,172233.0,527.0,Karen Rolton Oval,"Adelaide, South Australia",+10:30,-34.9191215,138.5815232,164.0,1696291200000,1711497600000,True,QL Won,1.0,132.0,10.0,40.3,3.0,232.0,10.0,71.6,2.0,159.0,10.0,50.5,4.0,206.0,3.0,63.3,,,,
79251.0,6990.0,Sheffield Shield 2023-24,21st Match,TEST,1706927400000,1707211800000,Complete,New South Wales won by 4 wkts,87.0,Western Australia,WA,172180.0,104.0,New South Wales,NSW,172196.0,38.0,W.A.C.A. Ground,Perth,+08:00,-31.959806,115.879585,104.0,1696291200000,1711497600000,True,NSW Won,1.0,256.0,10.0,87.6,3.0,176.0,10.0,56.5,2.0,251.0,10.0,99.4,4.0,182.0,6.0,59.3,,,,
79244.0,6990.0,Sheffield Shield 2023-24,20th Match,TEST,1706918400000,1707202800000,Complete,Tasmania won by 4 wkts,164.0,Queensland,QL,172233.0,166.0,Tasmania,TAS,172235.0,35.0,The Gabba,Brisbane,+10:00,-27.485829,153.038055,166.0,1696291200000,1711497600000,True,TAS Won,1.0,282.0,10.0,84.4,3.0,160.0,10.0,57.2,2.0,219.0,10.0,59.4,4.0,228.0,6.0,56.3,,,,
79237.0,6990.0,Sheffield Shield 2023-24,19th Match,TEST,1706916600000,1707201000000,Complete,Victoria won by 3 wkts,158.0,South Australia,SAUS,172225.0,52.0,Victoria,VIC,172153.0,122.0,Junction Oval,Melbourne,+11:00,-37.856007,144.980155,52.0,1696291200000,1711497600000,True,VIC Won,1.0,173.0,10.0,70.3,3.0,271.0,10.0,83.2,2.0,288.0,10.0,88.3,4.0,157.0,7.0,44.3,,,,
87353.0,7441.0,"England Lions tour of India, 2024",3rd unofficial Test,TEST,1706760000000,1707044400000,Complete,India A won by 134 runs,78.0,India A,INDA,334736.0,42.0,England Lions,ENGA,172149.0,50.0,Narendra Modi Stadium,Ahmedabad,+05:30,23.091785,72.597465,78.0,1705017600000,1707177600000,True,INDA Won,1.0,192.0,10.0,50.2,3.0,409.0,10.0,107.1,2.0,199.0,10.0,64.3,4.0,268.0,10.0,72.4,,,,
86728.0,7175.0,ICC Under 19 World Cup 2024,Final,ODI,1707638400000,1707667200000,Complete,Australia U19 won by 79 runs,129.0,Australia U19,AUSU19,172204.0,54.0,India U19,INDU19,172155.0,135.0,Willowmoore Park,Benoni,+02:00,55.430751,-4.634697,129.0,1705622400000,1707782400000,True,AUSU19 Won,1.0,253.0,7.0,49.6,,,,,2.0,174.0,10.0,43.5,,,,,,,,
86725.0,7175.0,ICC Under 19 World Cup 2024,Semi-Final 2,ODI,1707379200000,1707408000000,Complete,Australia U19 won by 1 wkt,56.0,Pakistan U19,PAKU19,172158.0,129.0,Australia U19,AUSU19,172204.0,135.0,Willowmoore Park,Benoni,+02:00,55.430751,-4.634697,129.0,1705622400000,1707782400000,True,AUSU19 Won,1.0,179.0,10.0,48.5,,,,,2.0,181.0,9.0,49.1,,,,,,,,
86721.0,7175.0,ICC Under 19 World Cup 2024,Semi-Final 1,ODI,1707206400000,1707235200000,Complete,India U19 won by 2 wkts,57.0,South Africa U19,RSAU19,172159.0,54.0,India U19,INDU19,172155.0,135.0,Willowmoore Park,Benoni,+02:00,55.430751,-4.634697,54.0,1705622400000,1707782400000,True,INDU19 Won,1.0,244.0,7.0,49.6,,,,,2.0,248.0,8.0,48.5,,,,,,,,
86714.0,7175.0,ICC Under 19 World Cup 2024,"38th Match, Super Six, Group 2",ODI,1706947200000,1706976000000,Complete,England U19 won by 146 runs,173.0,England U19,ENGU19,172241.0,221.0,Zimbabwe U19,ZIMU19,172276.0,102.0,Senwes Park,Potchefstroom,+02:00,-26.695565,27.100691,173.0,1705622400000,1707782400000,True,ENGU19 Won,1.0,237.0,7.0,49.6,,,,,2.0,91.0,10.0,24.5,,,,,,,,
86700.0,7175.0,ICC Under 19 World Cup 2024,"36th Match, Super Six, Group 1",ODI,1706947200000,1706976000000,Complete,Pakistan U19 won by 5 runs,56.0,Pakistan U19,PAKU19,172158.0,224.0,Bangladesh U19,BANU19,172279.0,135.0,Willowmoore Park,Benoni,+02:00,55.430751,-4.634697,56.0,1705622400000,1707782400000,True,PAKU19 Won,1.0,155.0,10.0,40.4,,,,,2.0,150.0,10.0,35.5,,,,,,,,
86707.0,7175.0,ICC Under 19 World Cup 2024,"37th Match, Super Six, Group 1",ODI,1706947200000,1706976000000,Complete,Ireland U19 won by 41 runs (DLS method),226.0,Ireland U19,IREU19,172280.0,55.0,New Zealand U19,NZU19,172157.0,72.0,Mangaung Oval,Bloemfontein,+02:00,-29.116752,26.20519,226.0,1705622400000,1707782400000,True,IREU19 Won,1.0,267.0,9.0,49.6,,,,,2.0,131.0,5.0,32.1,,,,,,,,
79207.0,6983.0,Australia Domestic One-Day Cup 2023-24,21st Match,ODI,1707870900000,1707899700000,Complete,New South Wales won by 7 wkts (DLS method),52.0,Victoria,VIC,172153.0,104.0,New South Wales,NSW,172196.0,301.0,North Sydney Oval,Sydney,+11:00,-33.868820,151.209296,104.0,1695513600000,1708992000000,True,NSW Won,1.0,311.0,10.0,48.4,,,,,2.0,256.0,3.0,40.5,,,,,,,,
79200.0,6983.0,Australia Domestic One-Day Cup 2023-24,19th Match,ODI,1707868800000,1707897600000,Complete,South Australia won by 5 wkts,164.0,Queensland,QL,172233.0,158.0,South Australia,SAUS,172225.0,527.0,Karen Rolton Oval,"Adelaide, South Australia",+10:30,-34.9191215,138.5815232,158.0,1695513600000,1708992000000,True,SAUS Won,1.0,218.0,10.0,49.4,,,,,2.0,223.0,5.0,44.1,,,,,,,,
79203.0,6983.0,Australia Domestic One-Day Cup 2023-24,20th Match,ODI,1707868800000,1707897600000,Complete,Western Australia won by 52 runs,166.0,Tasmania,TAS,172235.0,87.0,Western Australia,WA,172180.0,39.0,Bellerive Oval,Hobart,+11:00,-42.877296,147.374013,87.0,1695513600000,1708992000000,True,WA Won,2.0,268.0,10.0,36.2,,,,,1.0,320.0,4.0,49.6,,,,,,,,
79186.0,6983.0,Australia Domestic One-Day Cup 2023-24,18th Match,ODI,1707361500000,1707390300000,Complete,Tasmania won by 5 wkts,164.0,Queensland,QL,172233.0,166.0,Tasmania,TAS,172235.0,35.0,The Gabba,Brisbane,+10:00,-27.485829,153.038055,166.0,1695513600000,1708992000000,True,TAS Won,1.0,150.0,10.0,35.3,,,,,2.0,153.0,5.0,26.6,,,,,,,,
79193.0,6983.0,Australia Domestic One-Day Cup 2023-24,17th Match,ODI,1707346800000,1707375600000,Complete,Victoria won by 3 wkts,158.0,South Australia,SAUS,172225.0,52.0,Victoria,VIC,172153.0,122.0,Junction Oval,Melbourne,+11:00,-37.856007,144.980155,52.0,1695513600000,1708992000000,True,VIC Won,1.0,231.0,9.0,49.6,,,,,2.0,234.0,7.0,44.1,,,,,,,,
82553.0,7236.0,CSA Four-Day Series Division Two 2023-24,17th Match,TEST,1707379200000,1707663600000,Complete,Knights won by 9 wkts,1768.0,South Western Districts,SWD,349609.0,281.0,Knights,KNG,172331.0,72.0,Mangaung Oval,Bloemfontein,+02:00,-29.116752,26.20519,281.0,1698278400000,1708905600000,True,KNG Won,1.0,69.0,10.0,32.1,3.0,273.0,10.0,70.2,2.0,214.0,10.0,56.2,4.0,129.0,1.0,21.5,,,,
82560.0,7236.0,CSA Four-Day Series Division Two 2023-24,18th Match,TEST,1707379200000,1707663600000,Complete,Mpumalanga Rhinos won by 293 runs,903.0,Mpumalanga Rhinos,MPR,248434.0,933.0,Eastern Storm,ESTORM,248407.0,1193.0,"Uplands College, White River",Mpumalanga,+02:00,-25.328440,31.017780,903.0,1698278400000,1708905600000,True,MPR Won,1.0,273.0,10.0,94.6,3.0,321.0,5.0,68.2,2.0,193.0,10.0,56.4,4.0,108.0,10.0,64.2,True,,,
82546.0,7236.0,CSA Four-Day Series Division Two 2023-24,16th Match,TEST,1707379200000,1707663600000,Complete,Match drawn,923.0,Northern Cape,NCAPE,248438.0,1775.0,Border,BOR,349602.0,99.0,Buffalo Park,East London,+02:00,-33.006727,27.919465,,1698278400000,1708905600000,True,Match drawn,1.0,527.0,5.0,163.5,,,,,2.0,516.0,7.0,166.5,,,,,,,,True
82539.0,7236.0,CSA Four-Day Series Division Two 2023-24,15th Match,TEST,1706774400000,1707058800000,Complete,Border won by 9 wkts,281.0,Knights,KNG,172331.0,1775.0,Border,BOR,349602.0,99.0,Buffalo Park,East London,+02:00,-33.006727,27.919465,1775.0,1698278400000,1708905600000,True,BOR Won,1.0,363.0,10.0,81.2,3.0,235.0,10.0,80.6,2.0,483.0,10.0,140.6,4.0,119.0,1.0,31.2,,,,
88982.0,7539.0,"Kuwait Women tour of Malaysia, 2024",3rd T20I,T20,1707183000000,1707195600000,Complete,Malaysia Women won by 10 wkts,1097.0,Kuwait Women,KUWW,248426.0,445.0,Malaysia Women,MLYW,172493.0,1850.0,Johor Cricket Academy Oval,Johor Bahru,+08:00,1.51634,103.64003,445.0,1707004800000,1707350400000,True,MLYW Won,1.0,77.0,10.0,20.0,,,,,2.0,78.0,,13.4,,,,,,,,
88975.0,7539.0,"Kuwait Women tour of Malaysia, 2024",2nd T20I,T20,1707096600000,1707109200000,Complete,Malaysia Women won by 5 wkts,1097.0,Kuwait Women,KUWW,248426.0,445.0,Malaysia Women,MLYW,172493.0,1850.0,Johor Cricket Academy Oval,Johor Bahru,+08:00,1.51634,103.64003,445.0,1707004800000,1707350400000,True,MLYW Won,1.0,98.0,7.0,20.0,,,,,2.0,99.0,5.0,15.4,,,,,,,,
88968.0,7539.0,"Kuwait Women tour of Malaysia, 2024",1st T20I,T20,1707010200000,1707022800000,Complete,Malaysia Women won by 26 runs,445.0,Malaysia Women,MLYW,172493.0,1097.0,Kuwait Women,KUWW,248426.0,1850.0,Johor Cricket Academy Oval,Johor Bahru,+08:00,1.51634,103.64003,445.0,1707004800000,1707350400000,True,MLYW Won,1.0,108.0,6.0,19.6,,,,,2.0,82.0,7.0,19.6,,,,,,,,
70473.0,6311.0,"South Africa Women tour of Australia, 2024",Only Test,TEST,1707966000000,1708250400000,Complete,Australia Women won by an innings and 284 runs,260.0,South Africa Women,RSAW,172313.0,100.0,Australia Women,AUSW,172192.0,38.0,W.A.C.A. Ground,Perth,+08:00,-31.959806,115.879585,100.0,1706313600000,1708387200000,True,AUSW Won,1.0,76.0,10.0,31.2,3.0,215.0,10.0,97.2,2.0,575.0,9.0,125.2,,,,,,True,,
70466.0,6311.0,"South Africa Women tour of Australia, 2024",3rd ODI (ICC Championship Match),ODI,1707536400000,1707565200000,Complete,Australia Women won by 110 runs (DLS method),100.0,Australia Women,AUSW,172192.0,260.0,South Africa Women,RSAW,172313.0,301.0,North Sydney Oval,Sydney,+11:00,-33.868820,151.209296,100.0,1706313600000,1708387200000,True,AUSW Won,1.0,277.0,9.0,49.6,,,,,2.0,127.0,10.0,24.3,,,,,,,,
70459.0,6311.0,"South Africa Women tour of Australia, 2024",2nd ODI (ICC Championship Match),ODI,1707277200000,1707306000000,Complete,South Africa Women won by 84 runs - 45over game - DLS method (Target 234),260.0,South Africa Women,RSAW,172313.0,100.0,Australia Women,AUSW,172192.0,301.0,North Sydney Oval,Sydney,+11:00,-33.868820,151.209296,260.0,1706313600000,1708387200000,True,RSAW Won,1.0,229.0,6.0,44.6,,,,,2.0,149.0,10.0,29.3,,,,,,,,
70452.0,6311.0,"South Africa Women tour of Australia, 2024",1st ODI (ICC Championship Match),ODI,1706931600000,1706960400000,Complete,Australia Women won by 8 wkts,260.0,South Africa Women,RSAW,172313.0,100.0,Australia Women,AUSW,172192.0,40.0,Adelaide Oval,Adelaide,+10:30,-34.915516,138.596115,100.0,1706313600000,1708387200000,True,AUSW Won,1.0,105.0,10.0,31.3,,,,,2.0,106.0,2.0,18.6,,,,,,,,
89238.0,7565.0,Asian Cricket Council Womens Premier Cup 2024,Final,T20,1708223400000,1708236000000,Complete,United Arab Emirates Women won by 37 runs,449.0,United Arab Emirates Women,UAEW,252369.0,445.0,Malaysia Women,MLYW,172493.0,394.0,Bayuemas Oval,Kuala Lumpur,+08:00,2.819586,101.5199,449.0,1707523200000,1708387200000,True,UAEW Won,1.0,105.0,3.0,19.6,,,,,2.0,68.0,9.0,19.6,,,,,,,,
89234.0,7565.0,Asian Cricket Council Womens Premier Cup 2024,Semi Final 2,T20,1708061400000,1708074000000,Complete,Malaysia Women won by 4 wkts,383.0,Nepal Women,NEPW,172436.0,445.0,Malaysia Women,MLYW,172493.0,394.0,Bayuemas Oval,Kuala Lumpur,+08:00,2.819586,101.5199,445.0,1707523200000,1708387200000,True,MLYW Won,1.0,115.0,6.0,19.6,,,,,2.0,116.0,6.0,19.5,,,,,,,,
89231.0,7565.0,Asian Cricket Council Womens Premier Cup 2024,Semi Final 1,T20,1708047000000,1708059600000,Complete,United Arab Emirates Women won by 4 runs,449.0,United Arab Emirates Women,UAEW,252369.0,382.0,Thailand Women,THAIW,172435.0,394.0,Bayuemas Oval,Kuala Lumpur,+08:00,2.819586,101.5199,449.0,1707523200000,1708387200000,True,UAEW Won,1.0,70.0,7.0,19.6,,,,,2.0,66.0,10.0,19.2,,,,,,,,
89224.0,7565.0,Asian Cricket Council Womens Premier Cup 2024,3rd quarter final,T20,1707888600000,1707901200000,Complete,Malaysia Women won by 16 runs,445.0,Malaysia Women,MLYW,172493.0,487.0,Japan Women,JPNW,248419.0,394.0,Bayuemas Oval,Kuala Lumpur,+08:00,2.819586,101.5199,445.0,1707523200000,1708387200000,True,MLYW Won,1.0,101.0,3.0,19.6,,,,,2.0,85.0,7.0,19.6,,,,,,,,
89227.0,7565.0,Asian Cricket Council Womens Premier Cup 2024,4th quarter final,T20,1707888600000,1707901200000,Complete,Nepal Women won by 8 wkts - Match Reduced to 12 Overs due to rain (Target : 50),1097.0,Kuwait Women,KUWW,248426.0,383.0,Nepal Women,NEPW,172436.0,1853.0,YSD-UKM Cricket Oval,Bangi,+08:00,2.9348189,101.7823779,383.0,1707523200000,1708387200000,True,NEPW Won,1.0,73.0,9.0,19.6,,,,,2.0,50.0,2.0,6.5,,,,,,,,
89213.0,7565.0,Asian Cricket Council Womens Premier Cup 2024,1st quarter final,T20,1707874200000,1707886800000,Complete,Thailand Women won by 3 wkts,502.0,Hong Kong Women,HKW,172551.0,382.0,Thailand Women,THAIW,172435.0,394.0,Bayuemas Oval,Kuala Lumpur,+08:00,2.819586,101.5199,382.0,1707523200000,1708387200000,True,THAIW Won,1.0,92.0,8.0,19.6,,,,,2.0,93.0,7.0,19.1,,,,,,,,
89217.0,7565.0,Asian Cricket Council Womens Premier Cup 2024,2nd quarter final,T20,1707874200000,1707886800000,Complete,United Arab Emirates Women won by 56 runs,449.0,United Arab Emirates Women,UAEW,252369.0,484.0,Indonesia Women,IDNW,172532.0,1853.0,YSD-UKM Cricket Oval,Bangi,+08:00,2.9348189,101.7823779,449.0,1707523200000,1708387200000,True,UAEW Won,1.0,122.0,6.0,19.6,,,,,2.0,66.0,6.0,19.6,,,,,,,,
89192.0,7565.0,Asian Cricket Council Womens Premier Cup 2024,"21st Mach, Group A",T20,1707802200000,1707814800000,Complete,Thailand Women won by 86 runs,382.0,Thailand Women,THAIW,172435.0,509.0,Singapore Women,SINW,172558.0,511.0,Royal Selangor Club,Kuala Lumpur,+08:00,3.1495091,101.6907603,382.0,1707523200000,1708387200000,True,THAIW Won,1.0,162.0,5.0,19.6,,,,,2.0,76.0,10.0,18.5,,,,,,,,
89206.0,7565.0,Asian Cricket Council Womens Premier Cup 2024,"24th Match, Group D",T20,1707802200000,1707814800000,Complete,Nepal Women won by 214 runs,383.0,Nepal Women,NEPW,172436.0,1444.0,Maldives Women,MDVW,254832.0,1853.0,YSD-UKM Cricket Oval,Bangi,+08:00,2.9348189,101.7823779,383.0,1707523200000,1708387200000,True,NEPW Won,1.0,227.0,4.0,19.6,,,,,2.0,13.0,10.0,13.5,,,,,,,,
89199.0,7565.0,Asian Cricket Council Womens Premier Cup 2024,"22nd Match, Group B",T20,1707802200000,1707814800000,Complete,United Arab Emirates Women won by 10 wkts,487.0,Japan Women,JPNW,248419.0,449.0,United Arab Emirates Women,UAEW,252369.0,1293.0,Selangor Turf Club,Kuala Lumpur,+08:00,3.0446268,101.3394008,449.0,1707523200000,1708387200000,True,UAEW Won,1.0,67.0,7.0,19.6,,,,,2.0,68.0,,10.3,,,,,,,,
89203.0,7565.0,Asian Cricket Council Womens Premier Cup 2024,"23rd Match, Group C",T20,1707802200000,1707814800000,Complete,Indonesia Women won by 9 wkts,485.0,Qatar Women,QATW,172533.0,484.0,Indonesia Women,IDNW,172532.0,394.0,Bayuemas Oval,Kuala Lumpur,+08:00,2.819586,101.5199,484.0,1707523200000,1708387200000,True,IDNW Won,1.0,67.0,9.0,19.6,,,,,2.0,70.0,1.0,12.1,,,,,,,,
89175.0,7565.0,Asian Cricket Council Womens Premier Cup 2024,"18th Match, Group B",T20,1707787800000,1707800400000,Complete,China Women won by 8 wkts,505.0,Oman Women,OMANW,172554.0,486.0,China Women,CHNW,172534.0,1293.0,Selangor Turf Club,Kuala Lumpur,+08:00,3.0446268,101.3394008,486.0,1707523200000,1708387200000,True,CHNW Won,1.0,56.0,10.0,19.4,,,,,2.0,59.0,2.0,13.2,,,,,,,,
89178.0,7565.0,Asian Cricket Council Womens Premier Cup 2024,"19th Match, Group C",T20,1707787800000,1707800400000,Complete,Malaysia Women won by 126 runs,445.0,Malaysia Women,MLYW,172493.0,1083.0,Bahrain Women,BHRW,248395.0,394.0,Bayuemas Oval,Kuala Lumpur,+08:00,2.819586,101.5199,445.0,1707523200000,1708387200000,True,MLYW Won,1.0,188.0,3.0,19.6,,,,,2.0,62.0,10.0,16.6,,,,,,,,
89168.0,7565.0,Asian Cricket Council Womens Premier Cup 2024,"17th Match, Group A",T20,1707787800000,1707800400000,Complete,Kuwait Women won by 27 runs,1097.0,Kuwait Women,KUWW,248426.0,1517.0,Myanmar Women,MMRW,307474.0,511.0,Royal Selangor Club,Kuala Lumpur,+08:00,3.1495091,101.6907603,1097.0,1707523200000,1708387200000,True,KUWW Won,1.0,125.0,8.0,19.6,,,,,2.0,98.0,8.0,19.6,,,,,,,,
89185.0,7565.0,Asian Cricket Council Womens Premier Cup 2024,"20th Match, Group D",T20,1707787800000,1707800400000,Complete,Hong Kong Women won by 72 runs,502.0,Hong Kong Women,HKW,172551.0,1090.0,Bhutan Women,BTNW,248397.0,1853.0,YSD-UKM Cricket Oval,Bangi,+08:00,2.9348189,101.7823779,502.0,1707523200000,1708387200000,True,HKW Won,1.0,160.0,3.0,19.6,,,,,2.0,88.0,7.0,19.6,,,,,,,,
89143.0,7565.0,Asian Cricket Council Womens Premier Cup 2024,"13th Match, Group A",T20,1707629400000,1707642000000,Complete,Myanmar Women won by 5 wkts,509.0,Singapore Women,SINW,172558.0,1517.0,Myanmar Women,MMRW,307474.0,1853.0,YSD-UKM Cricket Oval,Bangi,+08:00,2.9348189,101.7823779,1517.0,1707523200000,1708387200000,True,MMRW Won,1.0,87.0,8.0,19.6,,,,,2.0,88.0,5.0,14.3,,,,,,,,
89161.0,7565.0,Asian Cricket Council Womens Premier Cup 2024,"16th Match, Group D",T20,1707629400000,1707642000000,Complete,Hong Kong Women won by 172 runs,502.0,Hong Kong Women,HKW,172551.0,1444.0,Maldives Women,MDVW,254832.0,394.0,Bayuemas Oval,Kuala Lumpur,+08:00,2.819586,101.5199,502.0,1707523200000,1708387200000,True,HKW Won,1.0,222.0,1.0,19.6,,,,,2.0,50.0,10.0,15.4,,,,,,,,
89150.0,7565.0,Asian Cricket Council Womens Premier Cup 2024,"14th Match, Group B",T20,1707629400000,1707642000000,Complete,Japan Women won by 4 wkts,486.0,China Women,CHNW,172534.0,487.0,Japan Women,JPNW,248419.0,511.0,Royal Selangor Club,Kuala Lumpur,+08:00,3.1495091,101.6907603,487.0,1707523200000,1708387200000,True,JPNW Won,1.0,75.0,10.0,19.5,,,,,2.0,76.0,6.0,18.3,,,,,,,,
89157.0,7565.0,Asian Cricket Council Womens Premier Cup 2024,"15th Match, Group C",T20,1707629400000,1707642000000,Complete,Malaysia Women won by 39 runs,445.0,Malaysia Women,MLYW,172493.0,485.0,Qatar Women,QATW,172533.0,1293.0,Selangor Turf Club,Kuala Lumpur,+08:00,3.0446268,101.3394008,445.0,1707523200000,1708387200000,True,MLYW Won,1.0,115.0,9.0,19.6,,,,,2.0,76.0,10.0,19.4,,,,,,,,
89126.0,7565.0,Asian Cricket Council Womens Premier Cup 2024,"10th Match, Group B",T20,1707615000000,1707627600000,Complete,United Arab Emirates Women won by 148 runs,449.0,United Arab Emirates Women,UAEW,252369.0,505.0,Oman Women,OMANW,172554.0,511.0,Royal Selangor Club,Kuala Lumpur,+08:00,3.1495091,101.6907603,449.0,1707523200000,1708387200000,True,UAEW Won,1.0,176.0,1.0,19.6,,,,,2.0,28.0,10.0,12.6,,,,,,,,
89129.0,7565.0,Asian Cricket Council Womens Premier Cup 2024,"11th Match, Group C",T20,1707615000000,1707627600000,Complete,Indonesia Women won by 88 runs,484.0,Indonesia Women,IDNW,172532.0,1083.0,Bahrain Women,BHRW,248395.0,1293.0,Selangor Turf Club,Kuala Lumpur,+08:00,3.0446268,101.3394008,484.0,1707523200000,1708387200000,True,IDNW Won,1.0,129.0,5.0,19.6,,,,,2.0,41.0,10.0,16.3,,,,,,,,
89122.0,7565.0,Asian Cricket Council Womens Premier Cup 2024,"9th Match, Group A",T20,1707615000000,1707627600000,Complete,Thailand Women won by 96 runs,382.0,Thailand Women,THAIW,172435.0,1097.0,Kuwait Women,KUWW,248426.0,1853.0,YSD-UKM Cricket Oval,Bangi,+08:00,2.9348189,101.7823779,382.0,1707523200000,1708387200000,True,THAIW Won,1.0,177.0,2.0,19.6,,,,,2.0,81.0,9.0,19.6,,,,,,,,
89136.0,7565.0,Asian Cricket Council Womens Premier Cup 2024,"12th Match, Group D",T20,1707615000000,1707627600000,Complete,Nepal Women won by 8 wkts,1090.0,Bhutan Women,BTNW,248397.0,383.0,Nepal Women,NEPW,172436.0,394.0,Bayuemas Oval,Kuala Lumpur,+08:00,2.819586,101.5199,383.0,1707523200000,1708387200000,True,NEPW Won,1.0,65.0,4.0,19.6,,,,,2.0,66.0,2.0,11.5,,,,,,,,
89112.0,7565.0,Asian Cricket Council Womens Premier Cup 2024,"7th Match, Group C",T20,1707543000000,1707555600000,Complete,Qatar Women won by 7 wkts,1083.0,Bahrain Women,BHRW,248395.0,485.0,Qatar Women,QATW,172533.0,511.0,Royal Selangor Club,Kuala Lumpur,+08:00,3.1495091,101.6907603,485.0,1707523200000,1708387200000,True,QATW Won,1.0,61.0,10.0,17.1,,,,,2.0,62.0,3.0,9.5,,,,,,,,
89098.0,7565.0,Asian Cricket Council Womens Premier Cup 2024,"5th Match, Group A",T20,1707543000000,1707555600000,Complete,Kuwait Women won by 10 wkts,509.0,Singapore Women,SINW,172558.0,1097.0,Kuwait Women,KUWW,248426.0,394.0,Bayuemas Oval,Kuala Lumpur,+08:00,2.819586,101.5199,1097.0,1707523200000,1708387200000,True,KUWW Won,1.0,89.0,6.0,19.6,,,,,2.0,92.0,,13.4,,,,,,,,
89115.0,7565.0,Asian Cricket Council Womens Premier Cup 2024,"8th Match, Group D",T20,1707543000000,1707555600000,Complete,Bhutan Women won by 94 runs,1090.0,Bhutan Women,BTNW,248397.0,1444.0,Maldives Women,MDVW,254832.0,1293.0,Selangor Turf Club,Kuala Lumpur,+08:00,3.0446268,101.3394008,1090.0,1707523200000,1708387200000,True,BTNW Won,1.0,124.0,8.0,19.6,,,,,2.0,30.0,10.0,18.1,,,,,,,,
89105.0,7565.0,Asian Cricket Council Womens Premier Cup 2024,"6th Match, Group B",T20,1707543000000,1707555600000,Complete,Japan Women won by 14 runs,487.0,Japan Women,JPNW,248419.0,505.0,Oman Women,OMANW,172554.0,1853.0,YSD-UKM Cricket Oval,Bangi,+08:00,2.9348189,101.7823779,487.0,1707523200000,1708387200000,True,JPNW Won,1.0,130.0,4.0,19.6,,,,,2.0,116.0,5.0,19.6,,,,,,,,
89073.0,7565.0,Asian Cricket Council Womens Premier Cup 2024,"1st Match, Group A",T20,1707528600000,1707541200000,Complete,Thailand Women won by 10 wkts,1517.0,Myanmar Women,MMRW,307474.0,382.0,Thailand Women,THAIW,172435.0,394.0,Bayuemas Oval,Kuala Lumpur,+08:00,2.819586,101.5199,382.0,1707523200000,1708387200000,True,THAIW Won,1.0,32.0,10.0,16.4,,,,,2.0,34.0,,4.4,,,,,,,,
89094.0,7565.0,Asian Cricket Council Womens Premier Cup 2024,"4th Match, Group D",T20,1707528600000,1707541200000,Complete,Nepal Women won by 8 wkts,502.0,Hong Kong Women,HKW,172551.0,383.0,Nepal Women,NEPW,172436.0,1293.0,Selangor Turf Club,Kuala Lumpur,+08:00,3.0446268,101.3394008,383.0,1707523200000,1708387200000,True,NEPW Won,1.0,93.0,8.0,19.6,,,,,2.0,95.0,2.0,14.1,,,,,,,,
89080.0,7565.0,Asian Cricket Council Womens Premier Cup 2024,"2nd Match, Group B",T20,1707528600000,1707541200000,Complete,United Arab Emirates Women won by 121 runs,449.0,United Arab Emirates Women,UAEW,252369.0,486.0,China Women,CHNW,172534.0,1853.0,YSD-UKM Cricket Oval,Bangi,+08:00,2.9348189,101.7823779,449.0,1707523200000,1708387200000,True,UAEW Won,1.0,155.0,1.0,19.6,,,,,2.0,34.0,10.0,17.5,,,,,,,,
89087.0,7565.0,Asian Cricket Council Womens Premier Cup 2024,"3rd Match, Group C",T20,1707528600000,1707541200000,Complete,Malaysia Women won by 6 wkts,484.0,Indonesia Women,IDNW,172532.0,445.0,Malaysia Women,MLYW,172493.0,511.0,Royal Selangor Club,Kuala Lumpur,+08:00,3.1495091,101.6907603,445.0,1707523200000,1708387200000,True,MLYW Won,1.0,80.0,7.0,19.6,,,,,2.0,81.0,4.0,17.5,,,,,,,,
